"","business_id","name","city","state","postal_code","latitude","longitude","is_open","categories"
"1",145384,"Served","Henderson","NV","89012",36.0107451,-115.0648029,"1","Ethnic Food, American (New), Burgers, Food, Restaurants, Asian Fusion, Specialty Food, Mexican, Sandwiches, Breakfast & Brunch, Korean"
"2",59949,"Pita Pit","Las Vegas","NV","89183",36.012764,-115.136056,"0","Middle Eastern, Restaurants, Vegetarian, Juice Bars & Smoothies, Ethnic Food, Salad, Food, Sandwiches, Specialty Food"
"3",13760,"Aladdin's Eatery","Mentor","OH","44060",41.6738589,-81.3228213,"1","Ethnic Food, Specialty Food, Food, Restaurants, Vegetarian, Mediterranean, Middle Eastern"
"4",166894,"Sinaloa Tacos 2","North Las Vegas","NV","89030",36.196168,-115.1108857,"1","Specialty Food, Imported Food, Ethnic Food, Food"
"5",158485,"Gandhi International Market","Charlotte","NC","28213",35.3072078,-80.7207979,"1","Grocery, Specialty Food, Ethnic Food, Food, Imported Food"
"6",79167,"Naya Mediterranean Cuisine","Scottsdale","AZ","85253",33.5659638976,-111.9250339642,"0","Specialty Food, Food, Bars, Italian, Nightlife, Ethnic Food, Restaurants, Cocktail Bars, Mediterranean"
"7",23950,"Don Patron","Streetsboro","OH","44241",41.2532681839,-81.3638442734,"1","Mexican, Food, Ethnic Food, Restaurants, Specialty Food, Imported Food"
"8",32114,"Prince Restaurant","Las Vegas","NV","89103",36.1140708,-115.2409255,"1","American (Traditional), Modern European, Ukrainian, Burgers, Barbeque, Imported Food, Mediterranean, Specialty Food, Food, Ethnic Food, Restaurants"
"9",92986,"Rolling Wok","Newmarket","ON","L3Y 8W8",44.0649983,-79.430207,"1","Specialty Food, Ethnic Food, Imported Food, Food"
"10",184144,"Bar Kada Avenue","Las Vegas","NV","89102",36.142762,-115.209066,"0","Specialty Food, Street Vendors, Filipino, Asian Fusion, Food, Nightlife, Restaurants, Karaoke, Ethnic Food, Bars, Beer, Wine & Spirits"
"11",74719,"Kings Delight Caribbean Cuisine","Toronto","ON","M9N 2S1",43.7019167,-79.5035253,"1","Ethnic Food, Food, Fish & Chips, Restaurants, Specialty Food, Barbeque, Caribbean"
"12",117604,"Mayettes","Toronto","ON","M1L 1C5",43.6927912,-79.2811846,"1","Ethnic Food, Personal Chefs, Restaurants, Seafood, Event Planning & Services, Fast Food, Specialty Food, Barbeque, Party & Event Planning, Filipino, Local Flavor, Food, Caterers"
"13",173040,"Jen's Noodle House","Airdrie","AB","T4B 3M2",51.2866520073,-114.0142864287,"1","Ethnic Food, Food, Chinese, Vietnamese, Specialty Food, Restaurants"
"14",85539,"Kal & Mooy","Toronto","ON","M5G",43.6501306,-79.3904119,"0","Food, Specialty Food, Middle Eastern, Restaurants, African, Ethnic Food, Food Trucks"
"15",15810,"Azuza Hookah Lounge & Cafe","Las Vegas","NV","89169",36.108898,-115.151261,"1","Beer, Wine & Spirits, Bars, Ethnic Food, Cafes, Specialty Food, Restaurants, Cocktail Bars, Arts & Entertainment, Hookah Bars, Tea Rooms, Food, Nightlife, Mediterranean, Coffee & Tea, Music Venues"
"16",84275,"Kanda Sushi Japanese Buffet","Mississauga","ON","L5A 4C7",43.5747808,-79.6081954,"1","Food, Specialty Food, Restaurants, Japanese, Sushi Bars, Ethnic Food"
"17",83351,"La Reyna Del Hot Dog","Glendale","AZ","85302",33.5668574215,-112.1873552861,"0","Hot Dogs, Ethnic Food, American (Traditional), Specialty Food, Food, Mexican, Restaurants"
"18",74251,"Jade Chinese Restaurant","York","ON","M6E 2H5",43.6967642,-79.4462269,"0","Restaurants, Chinese, Specialty Food, Ethnic Food, Food"
"19",190125,"Leena's Food","Pittsburgh","PA","15289",40.4418197,-79.9571314,"0","Halal, Vegan, Sandwiches, Vegetarian, Ethnic Food, Greek, Middle Eastern, Restaurants, Specialty Food, Mediterranean, Food"
"20",61748,"Yan's","Phoenix","AZ","85037",33.4801128,-112.2575424,"1","Specialty Food, Food, Restaurants, Ethnic Food, Chinese"
"21",161383,"Funkoosh","Mississauga","ON","L5M 1X1",43.580793,-79.713118,"0","Mediterranean, Food, Ethnic Food, Specialty Food, Desserts, Restaurants"
"22",127043,"Niemeyer Imports","Richmond Hill","ON","L4B 1G9",43.8533989,-79.3836057,"0","Grocery, Food, Do-It-Yourself Food, Specialty Food, Ethnic Food, Food Delivery Services, Restaurants, Delis"
"23",9877,"Wok-A-Way Chinese Food & Wings","Mississauga","ON","L5L 5T3",43.5271536418,-79.676365514,"1","Chicken Wings, Specialty Food, Hakka, Chinese, Restaurants, Food, Ethnic Food"
"24",173451,"Apple Inn","Calgary","AB","T2E 3M7",51.0736152,-114.0566103,"1","Imported Food, Chinese, Food, Ethnic Food, Specialty Food, Restaurants"
"25",152703,"Greek House","Newmarket","ON","L3Y 2R9",44.0683036432,-79.4292091502,"1","Imported Food, Specialty Food, Greek, Food, Restaurants, Ethnic Food"
"26",182335,"Golden Palace Restaurant","Brampton","ON","L6S 3L9",43.7492831,-79.7275433,"1","Ethnic Food, Restaurants, Specialty Food, Food, Chinese"
"27",108179,"Prince Kuhio Ho'olaule'a Festival","Henderson","NV","89015",36.0312803,-114.9825549,"1","Food, Arts & Entertainment, Festivals, Imported Food, Local Flavor, Ethnic Food, Specialty Food"
"28",160708,"Pho Lien","Montréal","QC","H3S 1V7",45.4990185,-73.6275758,"1","Restaurants, Food, Ethnic Food, Vietnamese, Specialty Food, Vegetarian"
"29",44446,"VOM FASS","Madison","WI","53705",43.0755448,-89.4429998,"1","Beer, Wine & Spirits, Food, Health Markets, Ethnic Food, Herbs & Spices, Specialty Food"
"30",2397,"Golden Thai Kitchen","Phoenix","AZ","85035",33.4679027715,-112.2213678798,"1","Food, Imported Food, Ethnic Food, Local Flavor, Specialty Food, Thai, Restaurants"
"31",158463,"Trader Joe's","Charlotte","NC","28277",35.078704,-80.818063,"1","Specialty Food, Food, Shopping, Ethnic Food, Health Markets, Beer, Wine & Spirits, Grocery, Shopping Centers, Florists, Flowers & Gifts"
"32",61616,"Nolbu","Toronto","ON","M2N 1R3",43.7629644,-79.4119734,"1","Ethnic Food, Sushi Bars, Restaurants, Specialty Food, Food, Korean"
"33",91506,"Yupdduk","Toronto","ON","M2N",43.7793264,-79.4175692,"1","Imported Food, Food, Korean, Restaurants, Ethnic Food, Specialty Food"
"34",144230,"Rincon De Buenos Aires","Las Vegas","NV","89146",36.126315,-115.214259,"1","Argentine, Delis, Specialty Food, Ethnic Food, Italian, Restaurants, Food, Latin American, Grocery, Steakhouses"
"35",154969,"Super Burrito","Las Vegas","NV","89130",36.2396982,-115.23255,"0","Restaurants, Mexican, Ethnic Food, Food, Specialty Food"
"36",141007,"Ocean Palate","Markham","ON","L3T 0C7",43.8035434,-79.4195738,"1","Ethnic Food, Indian, Breakfast & Brunch, Food, Specialty Food, Halal, Hot Dogs, Restaurants, Vegetarian, Seafood"
"37",100329,"Freta Enjera","Toronto","ON","M6G 1M3",43.6624268,-79.4228459,"1","Restaurants, Imported Food, Ethnic Food, Food, Specialty Food, Ethiopian, Convenience Stores"
"38",184982,"Eating Garden Chinese Restaurant","Toronto","ON","M5T 1L1",43.6557848,-79.3937013,"0","Chinese, Food, Restaurants, Specialty Food, Ethnic Food"
"39",58436,"Win Win Chinese Restaurant","Whitby","ON","L1N 6J8",43.8780482,-78.9406516,"1","Imported Food, Food, Ethnic Food, Specialty Food"
"40",6117,"Quesada Burritos & Tacos","Brampton","ON","L6T 0H4",43.7376818066,-79.7002315253,"1","Ethnic Food, Mexican, Tex-Mex, Specialty Food, Restaurants, Food, Imported Food"
"41",133869,"Cedar Land","Charlotte","NC","28205",35.211861,-80.761811,"1","Restaurants, Greek, Lebanese, Specialty Food, Middle Eastern, Ethnic Food, Food, Mediterranean, Grocery"
"42",141028,"Rito's Italian Bakery & Deli","Parma","OH","44130",41.3635289,-81.7592375,"0","Food, Specialty Food, Ethnic Food, Restaurants, Delis, Bakeries"
"43",108382,"Aronis & Dimitra's Bistro","Toronto","ON","M6C 1B6",43.6810863,-79.4293909,"0","Food, Ethnic Food, Specialty Food"
"44",5946,"India Grocer","Cleveland","OH","44130",41.3779228,-81.7836168,"1","Imported Food, Food, Ethnic Grocery, Specialty Food, Ethnic Food, Grocery, International Grocery"
"45",165417,"DJ Bibingkahan","Las Vegas","NV","89109",36.1410827,-115.1364641,"0","Ethnic Food, Food, Filipino, Fast Food, Restaurants, Specialty Food"
"46",34166,"Misha's European Food Market","Phoenix","AZ","85024",33.655825,-112.062315,"1","International Grocery, Grocery, Ethnic Food, Specialty Food, Food"
"47",46019,"Como En Casa","Toronto","ON","M4Y 1Z2",43.6653391464,-79.3844996651,"1","Food, Ethnic Food, Specialty Food, Restaurants, Mexican"
"48",66432,"Peter's Euro Deli and Bakery","Toronto","ON","M8W 1N5",43.5947217867,-79.5321807638,"1","Bakeries, Imported Food, Ethnic Food, Delicatessen, Specialty Food, Food"
"49",115232,"Laos Market","Las Vegas","NV","89101",36.1761306,-115.1369366,"1","Imported Food, Specialty Food, International Grocery, Food, Ethnic Food, Local Flavor"
"50",39133,"Caspian Food Market","Scottsdale","AZ","85255",33.6412233517,-111.925810616,"1","Specialty Food, Ethnic Food, International Grocery, Food, Imported Food"
"51",102814,"Thai Green Chili","Toronto","ON","M6H 1M3",43.6603506,-79.4324956,"1","Thai, Restaurants, Food, Ethnic Food, Specialty Food"
"52",43970,"SF Supermarket","Las Vegas","NV","89146",36.125673,-115.210688,"1","Imported Food, Specialty Food, Fruits & Veggies, Ethnic Food, Grocery, Seafood Markets, Food, International Grocery, Meat Shops"
"53",131598,"El Viejo Taquito","Chandler","AZ","85225",33.3058644302,-111.828615672,"0","Ethnic Food, Food, Mexican, Restaurants, Specialty Food"
"54",112722,"Poke Express","Las Vegas","NV","89123",36.018156,-115.117786,"0","Specialty Food, Sandwiches, Poke, Breakfast & Brunch, Ethnic Food, Hawaiian, Restaurants, Food"
"55",53601,"Happy Garden Seafood Chinese Restaurant","Mississauga","ON","L5V 1N3",43.5780753,-79.6830835,"0","Specialty Food, Ethnic Food, Food"
"56",82446,"New India Bazaar","Phoenix","AZ","85006",33.4760486,-112.0654671,"1","Indian, Food, Specialty Food, Restaurants, Buffets, Grocery, Ethnic Food"
"57",16059,"Papaya Thai","Mesa","AZ","85213",33.4237052,-111.7728895,"1","Ethnic Food, Food, Specialty Food, Thai, Restaurants"
"58",55341,"Kohinoor Foods","Toronto","ON","M4L 1Z8",43.6725489,-79.3217747,"1","Grocery, Specialty Food, Ethnic Food, Food"
"59",166646,"Pink Pearl Chinese Restaurant & Lounge","Calgary","AB","T2P 4K1",51.0455991,-114.0690246,"1","Bars, Food, Chinese, Ethnic Food, Restaurants, Shopping Centers, Specialty Food, Shopping, Imported Food, Lounges, Nightlife"
"60",46264,"Babushka's Kitchen","Independence","OH","44131",41.385197,-81.639656,"0","Food, Specialty Food, Ethnic Food, Restaurants, Polish"
"61",24909,"Arizona Frybread","Avondale","AZ","85323",33.453647,-112.340517,"0","Ethnic Food, American (New), Specialty Food, Restaurants, Food"
"62",17161,"Patties Express","Toronto","ON","M5G 1G7",43.6578559,-79.381882,"1","Specialty Food, Restaurants, Ethnic Food, Bakeries, Caribbean, Food"
"63",51960,"The Star Fastfood","Mississauga","ON","L5C 4P3",43.567427862,-79.6595320478,"1","Imported Food, Ethnic Food, Fast Food, Restaurants, Chinese, Specialty Food, Food"
"64",176153,"Lydiah's Coffee House","Pittsburgh","PA","15219",40.4371691,-79.9981261,"0","Specialty Food, Imported Food, Food, African, Ethnic Food, Coffee & Tea, Restaurants"
"65",148139,"Chang Jiang","Madison","WI","53719",43.0505454,-89.5039768,"1","Chinese, Food, Specialty Food, Restaurants, Ethnic Food"
"66",145089,"Kainan Asian Market & Gift Shop","Las Vegas","NV","89123",36.0150168,-115.1712669,"1","Specialty Food, Food, Ethnic Food, International Grocery"
"67",130433,"Empress Taytu Ethiopian Restaurant","Cleveland","OH","44103",41.5240959,-81.648597,"1","Specialty Food, Restaurants, Gluten-Free, Vegetarian, Ethnic Food, Food, Vegan, Ethiopian"
"68",67079,"Babaloos Cuban Cafe","Phoenix","AZ","85048",33.304331,-112.054775,"0","Ethnic Food, Cuban, Specialty Food, Restaurants, Food"
"69",102268,"Super L Ranch Market","Scottsdale","AZ","85251",33.4789806,-111.9102366,"1","Food, Specialty Food, International Grocery, Ethnic Food, Grocery"
"70",58109,"TJ Buffet Sushi & Grill","Mayfield Heights","OH","44124",41.5192352523,-81.467804946,"0","Japanese, Specialty Food, Restaurants, Food, Cantonese, Chinese, Ethnic Food"
"71",59951,"Cleveland Tiffin- Punjabi Dhaba","North Randall","OH","44128",41.434184,-81.5366821,"1","Ethnic Food, Restaurants, Indian, Specialty Food, Food"
"72",174851,"The South African Store","Toronto","ON","M3H 3N4",43.7422665734,-79.4348752499,"1","Grocery, Candy Stores, Specialty Food, Ethnic Food, Butcher, Food"
"73",122141,"Blossom Pure Organic","Toronto","ON","M8Z 5X2",43.6195906,-79.550246,"1","Butcher, Organic Stores, Restaurants, Specialty Food, Ethnic Food, Meat Shops, Food, Halal"
"74",85899,"Shanthi Supermarket","Pittsburgh","PA","15220",40.4165189,-80.0452196,"1","International Grocery, Grocery, Specialty Food, Food, Ethnic Food"
"75",36216,"Royal Indian Bistro","Las Vegas","NV","89103",36.1168022203,-115.1856471948,"1","Ethnic Food, Indian, Food, Vegan, Bars, Vegetarian, Specialty Food, Nightlife, Restaurants, Soup"
"76",187859,"Marché Méli-Mélo","Montréal","QC","H2P 1V7",45.5447305591,-73.6275914858,"1","Restaurants, Haitian, Convenience Stores, Food, Ethnic Food, Caribbean, Cajun/Creole, Imported Food, Specialty Food, Delicatessen"
"77",145352,"Dragon Pearl Restaurant","Calgary","AB","T2G 0S9",51.041420619,-114.0353220036,"1","Food, Restaurants, Ethnic Food, Chinese, Specialty Food"
"78",135041,"Hana Asian Market","Akron","OH","44313",41.1327501,-81.5491734,"0","Specialty Food, Ethnic Food, Grocery, Food"
"79",5595,"Burgers + Ethnic Food + BBQ","Madison","WI","53719",43.0586334579,-89.5049548626,"0","Specialty Food, Imported Food, Ethnic Food, Restaurants, Food, Barbeque, Burgers"
"80",118475,"Cheese and Crackers","Champaign","IL","61821",40.0975748,-88.274709,"1","Specialty Food, Cheese Shops, Delis, Ethnic Food, Seafood Markets, Chocolatiers & Shops, Food, Restaurants"
"81",133632,"California Thai","Toronto","ON","M5V 3G2",43.6459076,-79.3878224,"1","Specialty Food, Restaurants, Food, Imported Food, Ethnic Food, Thai"
"82",95205,"House of Wong","Scarborough","ON","M1E 2P3",43.773573,-79.182994,"1","Restaurants, Chinese, Imported Food, Ethnic Food, Food, Specialty Food"
"83",37945,"Pita's","Las Vegas","NV","89123",36.0526775416,-115.1685404579,"1","Mediterranean, Restaurants, Specialty Food, Imported Food, Food, Ethnic Food"
"84",182629,"Salim's Middle Eastern Food Store","Pittsburgh","PA","15213",40.4527796,-79.9495128,"1","Delis, Imported Food, Restaurants, Ethnic Food, Grocery, Food, Specialty Food"
"85",111226,"Marketon","Las Vegas","NV","89121",36.0986974,-115.1168312,"1","Grocery, Imported Food, Lawyers, Food, Ethnic Food, Professional Services, Bakeries, Specialty Food"
"86",101726,"Island Malaysian Cuisine","Las Vegas","NV","89103",36.125592,-115.211199,"1","Asian Fusion, Malaysian, Ethnic Food, Food, Specialty Food, Thai, Singaporean, Chinese, Restaurants"
"87",184328,"St Katherine Greek Orthodox Church","Chandler","AZ","85224",33.346843,-111.877144,"1","Religious Organizations, Churches, Food, Specialty Food, Ethnic Food, Arts & Entertainment, Festivals"
"88",101449,"Aida's Pine Valley Bakery","Woodbridge","ON","L4L 5V2",43.7799557703,-79.5706223657,"1","Sandwiches, Ethnic Food, Specialty Food, Bakeries, Restaurants, Food, Pizza, Coffee & Tea"
"89",170474,"Sa Bai Dee Thai Cuisine","Phoenix","AZ","85051",33.5803604126,-112.120513916,"0","Laotian, Restaurants, Ethnic Food, Specialty Food, Thai, Food"
"90",3533,"Super Choy Restaurant","Scarborough","ON","M1M 1N2",43.7211266,-79.2365238,"1","Restaurants, Specialty Food, Chinese, Food, Ethnic Food"
"91",87780,"Tom Yum Downtown","Phoenix","AZ","85004",33.449568,-112.0740163,"1","Ethnic Food, Vietnamese, Food, Restaurants, Specialty Food, Chinese, Imported Food, Thai"
"92",90152,"China China Express","York","ON","M9N 1X8",43.7030211,-79.5244406,"1","Restaurants, Ethnic Food, Food, Chinese, Specialty Food"
"93",175307,"Iqbal Halal Foods","Toronto","ON","M4H 1G9",43.7059002546,-79.3520585501,"1","Cheese Shops, Grocery, Specialty Food, Food, Personal Shopping, Ethnic Food, Shopping"
"94",58952,"Ava Food Market","North York","ON","M2N 3A8",43.7640457838,-79.3992219398,"1","Specialty Food, Grocery, Restaurants, Food, Middle Eastern, Ethnic Food"
"95",61408,"Grill It Up","Toronto","ON","M2J 5A7",43.77529,-79.346936,"1","Ethnic Food, Food, Imported Food, Specialty Food, Restaurants, Food Court"
"96",169955,"Amaya Food Courts","Mississauga","ON","L5B 2C9",43.592098,-79.639562,"1","Imported Food, Ethnic Food, Specialty Food, Indian, Food, Restaurants"
"97",156323,"Mayflower Chinese Food","Etobicoke","ON","M9P 3B6",43.6916836,-79.5319995,"1","Specialty Food, Chinese, Food, Restaurants, Ethnic Food"
"98",82102,"Sultan Shawarma","Toronto","ON","M9B 1B5",43.6320348,-79.5438382,"0","Middle Eastern, Fast Food, Food, Ethnic Food, Imported Food, Restaurants, Specialty Food"
"99",59680,"Marie's Cafe","Medina","OH","44256",41.1393741,-81.8633777,"1","Coffee & Tea, Breakfast & Brunch, Restaurants, Mediterranean, Food, Diners, Sandwiches, Specialty Food, Middle Eastern, Ethnic Food"
"100",126658,"Steeles Garden","Woodbridge","ON","L4L 4Y6",43.7711261,-79.5452746,"1","Chinese, Restaurants, Food, Ethnic Food, Specialty Food"
"101",75977,"Mister Moon's Chinese Food","Richmond Hill","ON","L4E 3L6",43.952084,-79.4559294,"1","Restaurants, Food, Chinese, Food Delivery Services, Specialty Food, Ethnic Food"
"102",7241,"Arirang Oriental Food Store","Calgary","AB","T3C 0J2",51.0446325,-114.0926237,"1","Grocery, Food, Imported Food, Ethnic Food, Specialty Food"
"103",80841,"Kapit Bahay Filipino Restaurant","Toronto","ON","M1E 4S6",43.7686131,-79.1852935,"1","Specialty Food, Filipino, Ethnic Food, Food, Restaurants"
"104",53942,"Toronto Underground Market","Toronto","ON","M6J",43.6412522284,-79.4221874361,"1","Ethnic Food, Street Vendors, Specialty Food, Imported Food, Food, Food Trucks"
"105",127923,"Warsaw Village World Foods","Phoenix","AZ","85037",33.4947065,-112.2919195,"0","Polish, Restaurants, Specialty Food, Delis, Ethnic Food, Grocery, Food"
"106",175017,"La Dépense","Montréal","QC","H2S 3S3",45.5363632,-73.6146289,"1","Specialty Food, Ethnic Food, Imported Food, Food"
"107",188623,"International Discount Foods","North York","ON","M3J 3K5",43.7821596,-79.4904296,"1","Restaurants, Delis, Sandwiches, Imported Food, Specialty Food, Ethnic Food, Canadian (New), Food"
"108",80236,"Euro Delicacies","Las Vegas","NV","89139",36.0459524,-115.2441671,"1","Ethnic Food, Imported Food, Specialty Food, Food, Bakeries, International Grocery, Grocery, Ethnic Grocery, Candy Stores"
"109",141898,"Goldstone Noodle Restaurant","Toronto","ON","M5T 2E4",43.6521515722,-79.3979640307,"1","Restaurants, Food, Ethnic Food, Specialty Food, Chinese, Noodles"
"110",69313,"Jade China Inn","Calgary","AB","T2Z 3T7",50.9155156,-113.9606468,"0","Specialty Food, Food, Restaurants, Ethnic Food, Chinese"
"111",163880,"Golden Hill Chinese Food","Calgary","AB","T3J 1V4",51.1073898,-113.950189,"1","Chinese, Specialty Food, Food, Restaurants, Ethnic Food, Imported Food"
"112",159812,"PURE taqueria","Matthews","NC","28105",35.117505,-80.720332,"0","Tex-Mex, Ethnic Food, Specialty Food, Food, Mexican, Restaurants"
"113",123680,"Sunlight Chinese Food","Brampton","ON","L6V 1X6",43.697138,-79.75216,"1","Chinese, Food, Imported Food, Restaurants, Ethnic Food, Specialty Food"
"114",56843,"Sophie's Choice Pierogi","Cleveland","OH","44125",41.4336655,-81.6179361,"1","Imported Food, Restaurants, Polish, Ethnic Food, Delis, Specialty Food, Food"
"115",85167,"Yutaka","Toronto","ON","M5G 1C5",43.6551714096,-79.3857680102,"1","Japanese, Sushi Bars, Specialty Food, Ethnic Food, Food, Restaurants, Imported Food"
"116",147140,"Taza 21","Pittsburgh","PA","15289",40.4363638,-79.922875,"0","Specialty Food, Restaurants, Ethnic Food, Middle Eastern, Food"
"117",175839,"Ceedo's Eatery","Stow","OH","44224",41.180599,-81.481423,"1","Specialty Food, Restaurants, Mediterranean, Ethnic Food, Imported Food, Food"
"118",127228,"Ding-Ho Chinese Food","Scarborough","ON","M1P 2S8",43.7534551,-79.2534705,"1","Restaurants, Ethnic Food, Chinese, Food, Specialty Food"
"119",47700,"Michael's West Indian Flavor","Toronto","ON","M8V 4C9",43.5995201976,-79.5102864872,"1","Restaurants, Canadian (New), Indian, Caribbean, Ethnic Food, Food, Specialty Food, Imported Food"
"120",121830,"Eden Chinese Food","East York","ON","M4C 3G4",43.6971843,-79.3289854,"1","Event Planning & Services, Chinese, Ethnic Food, Specialty Food, Food, Caterers, Restaurants"
"121",153934,"Golden Wok Restaurant","Etobicoke","ON","M9C 3Z8",43.6606313,-79.5822484,"1","Restaurants, Food, Chinese, Specialty Food, Ethnic Food"
"122",29113,"Sai Wan Bistro","Mesa","AZ","85206",33.385161,-111.6872749,"0","Ethnic Food, Chinese, Specialty Food, Restaurants, Food"
"123",142922,"Que Sabor","Peoria","AZ","85345",33.5814297,-112.2426925,"0","Imported Food, Ethnic Food, Specialty Food, Mexican, Restaurants, Desserts, Food"
"124",80507,"Bun Saigon Vietnamese Restaurant","Toronto","ON","M5T 2C2",43.6516468,-79.3978711,"1","Specialty Food, Ethnic Food, Vietnamese, Food, Restaurants"
"125",143014,"Sake Express","Belmont","NC","28012",35.2542321,-81.0277775,"1","Sushi Bars, Fast Food, Restaurants, Food, Specialty Food, Ethnic Food, Seafood, Japanese"
"126",16540,"Hatoya Mart","Pineville","NC","28134",35.0927584,-80.8850792,"1","Grocery, International Grocery, Food, Ethnic Food, Specialty Food, Imported Food"
"127",139114,"South Sea Chinese Foods","Toronto","ON","M4K 1N1",43.6767155,-79.3574237,"0","Chinese, Ethnic Food, Food, Restaurants, Specialty Food"
"128",183192,"Mykonos Greek Cuisine","Las Vegas","NV","89134",36.2116995,-115.298321,"0","Food, Restaurants, Greek, Ethnic Food, Specialty Food"
"129",86353,"Villa Madina","Mississauga","ON","L5B 2G6",43.592098,-79.639562,"1","Specialty Food, Food, Imported Food, Restaurants, Food Court, Ethnic Food, Middle Eastern"
"130",183177,"Creteus","Calgary","AB","T3E 0A5",51.0378511,-114.1223788,"0","Ethnic Food, Specialty Food, Gas Stations, Restaurants, Food, Greek, Automotive"
"131",89431,"MyDelish","Mississauga","ON","L4W 5G6",43.632154,-79.6143273,"1","Bakeries, Imported Food, Food, Ethnic Food, Specialty Food"
"132",191262,"Masala","Montréal","QC","H3K 1H9",45.4824699,-73.5625264,"1","Ethnic Food, Specialty Food, Restaurants, Indian, Food"
"133",94040,"Solita","Toronto","ON","M6J 1Y3",43.6494312288,-79.4279501526,"0","Restaurants, Specialty Food, Ethnic Food, Food, Bakeries, Grocery, Cafes"
"134",41882,"Ceylon Flavor","Toronto","ON","M1X 0A5",43.8363841,-79.2510473,"0","Asian Fusion, Ethnic Food, Health Markets, Specialty Food, Restaurants, Caribbean, Indian, Sri Lankan, Southern, Food"
"135",75332,"How Do You Roll ?","Charlotte","NC","28277",35.0549780142,-80.8356642723,"0","Food, Specialty Food, Sushi Bars, Restaurants, Ethnic Food"
"136",147868,"Ethiopian Famous Restaurant & Coffee","Phoenix","AZ","85008",33.4653292,-111.9925464,"0","Restaurants, Food, Specialty Food, Ethiopian, Ethnic Food"
"137",125404,"The Wokker","Toronto","ON","M4M 1H3",43.659328,-79.3478004,"0","Chinese, Specialty Food, Ethnic Food, Restaurants, Food"
"138",93976,"Kim Anh Oriental Groceries & Gifts","Charlotte","NC","28273",35.152556,-80.951154,"1","Gift Shops, Vietnamese, Grocery, Shopping, Food, Flowers & Gifts, Imported Food, International Grocery, Ethnic Food, Restaurants, Ethnic Grocery, Specialty Food"
"139",35529,"Wilbur Mexicana","Toronto","ON","M5V 1M3",43.6448775,-79.3987981,"1","Restaurants, Ethnic Food, Specialty Food, Mexican, Food"
"140",172160,"Liberty Shawarma","Toronto","ON","M6K 1X4",43.6394628,-79.4212193,"1","Middle Eastern, Imported Food, Restaurants, Ethnic Food, Food, Specialty Food"
"141",22932,"Athenian Grill","Indian Trail","NC","28079",35.068953,-80.678809,"1","Specialty Food, American (Traditional), Mediterranean, Food, Greek, Sandwiches, Ethnic Food, Barbeque, Salad, Restaurants"
"142",186432,"Lucky Wok Restaurants","North York","ON","M3K 1E2",43.7315752,-79.4636218,"1","Imported Food, Ethnic Food, Food, Specialty Food, Restaurants, Chinese"
"143",102272,"Banana Blossom Thai Cuisine","Cleveland","OH","44113",41.4889136,-81.7090449,"1","Specialty Food, Restaurants, Thai, Food, Ethnic Food"
"144",15562,"Golden Inn Restaurant","Calgary","AB","T2G 0B2",51.0509119,-114.062128,"1","Chinese, Specialty Food, Food, Ethnic Food, Restaurants, Event Planning & Services, Imported Food, Caterers"
"145",85548,"Indian Taste Restaurant","Twinsburg","OH","44087",41.3120077,-81.4382935,"0","Ethnic Food, Imported Food, Indian, Vegetarian, Food, Restaurants, Buffets, Specialty Food, Desserts"
"146",177289,"Bayview Kitchen","Richmond Hill","ON","L4C 9X2",43.8757369,-79.4135058,"1","Restaurants, Food, Ethnic Food, Specialty Food, Imported Food, Chinese"
"147",91382,"Balkan Bakery","Phoenix","AZ","85022",33.639493,-112.057685,"1","Specialty Food, Desserts, Ethnic Food, Bakeries, Food"
"148",104046,"China China Express","North York","ON","M2J 4A8",43.7886595,-79.3293192,"1","Chinese, Imported Food, Restaurants, Specialty Food, Food, Ethnic Food"
"149",116316,"Paquime- Street Food of Mexico","Phoenix","AZ","85020",33.567471,-112.0730792,"1","Specialty Food, Food, Restaurants, Mexican, Ethnic Food"
"150",143771,"Taco Fusion","Pickering","ON","L1W 4B9",43.8330461,-79.057003,"1","Food, Asian Fusion, Ethnic Food, Restaurants, Mexican, Specialty Food, Food Stands"
"151",108894,"The Jerk Joint","Toronto","ON","M5V 1Z9",43.650344,-79.390459,"0","Specialty Food, Ethnic Food, Food, Caribbean, Restaurants"
"152",25716,"A Taste of Greece Festival","Chandler","AZ","85224",33.346862,-111.8769336,"1","Specialty Food, Arts & Entertainment, Food, Restaurants, Ethnic Food, Festivals, Greek"
"153",21605,"Lelolai Bakery & Cafe","Cleveland","OH","44114",41.5000352,-81.6902013,"0","Ethnic Food, Restaurants, Specialty Food, Desserts, Bakeries, Food"
"154",92026,"Olive Tree Market & Grill","Phoenix","AZ","85027",33.6988861,-112.1012447,"0","Food, Specialty Food, Coffee & Tea, Mediterranean, Greek, Restaurants, Ethnic Food"
"155",64923,"Thai Spice","Las Vegas","NV","89103",36.1148225492,-115.200800453,"1","Ethnic Food, Thai, Specialty Food, Restaurants, Food"
"156",190920,"Bamboo Gardens","Calgary","AB","T2E 4W2",51.065753,-114.016452,"1","Imported Food, Nurseries & Gardening, Shopping, Food, Home & Garden, Ethnic Food, Specialty Food"
"157",36983,"Island Sushi and Grill Express","Las Vegas","NV","89101",36.1718326389,-115.1467609406,"0","Food, Food Delivery Services, Specialty Food, Ethnic Food, Sushi Bars, Restaurants, Hawaiian"
"158",17016,"Chaiya Meditation Monastery Monthly Food Fair","Las Vegas","NV","89113",36.044368,-115.247206,"1","Specialty Food, Ethnic Food, Religious Organizations, Food, Imported Food, Buddhist Temples, Arts & Entertainment, Local Flavor, Festivals"
"159",40926,"Peking Express","Toronto","ON","M5A 2Z4",43.656748,-79.3646685,"1","Chinese, Restaurants, Food, Ethnic Food, Imported Food, Specialty Food"
"160",123090,"Enjoy House Restaurant","Calgary","AB","T2A 0R7",51.038122,-113.984249,"1","Imported Food, Ethnic Food, Specialty Food, Food"
"161",178871,"Mandarin Restaurant - North York","North York","ON","M3J 2C7",43.7680777,-79.4697753,"1","Buffets, Chinese, Ethnic Food, Specialty Food, Restaurants, Food"
"162",73393,"Hawaiian Style Poke","Las Vegas","NV","89103",36.1255480744,-115.1944858752,"1","Local Flavor, Restaurants, Specialty Food, Hawaiian, Ethnic Food, Asian Fusion, Poke, Food"
"163",152804,"Sunny Supermarket","Toronto","ON","M2H 1T2",43.792453,-79.366996,"1","Specialty Food, Ethnic Food, Grocery, Imported Food, Food"
"164",92891,"Crupis Pizza","Markham","ON","L3P 7P4",43.881274,-79.2885231,"0","Imported Food, Restaurants, Pizza, Specialty Food, Food, Ethnic Food"
"165",56170,"Bavarian Deli","Fort Mill","SC","29708",35.038184,-80.97804,"0","Restaurants, German, Specialty Food, Food, Ethnic Food, Grocery"
"166",157121,"Afghan Cuisine","Richmond Hill","ON","L4C 4M6",43.8931308924,-79.440486962,"1","Food, Ethnic Food, Specialty Food, Halal, Afghan, Pakistani, Restaurants"
"167",148833,"Hola Cabrito","Phoenix","AZ","85040",33.4022388,-112.0468685,"1","Food, Mexican, Specialty Food, Ethnic Food, Imported Food, Restaurants"
"168",132007,"Z'S Market & Deli","Phoenix","AZ","85027",33.6988429,-112.101312,"0","Specialty Food, Restaurants, Food, Delis, Ethnic Food"
"169",54227,"Holy Joes Meats & More","Charlotte","NC","28262",35.327941,-80.739259,"1","Ethnic Food, Grocery, Specialty Food, Butcher, Meat Shops, Food, Halal, Restaurants"
"170",82217,"Pupuseria La Bendicion","Cleveland","OH","44111",41.4521182,-81.7589193,"1","Latin American, Colombian, Delis, Sandwiches, Imported Food, Food, Salvadoran, Ethnic Food, Restaurants, Specialty Food"
"171",103948,"Macey's Restaurant","Mississauga","ON","L5C 3X3",43.577291184,-79.6533525735,"1","Chinese, Imported Food, Restaurants, Specialty Food, Diners, Food, Ethnic Food"
"172",123991,"Shalimar Foods","Chandler","AZ","85224",33.3188945913,-111.8605493009,"0","Restaurants, Ethnic Food, Indian, Specialty Food, Food"
"173",9353,"Maria's Mexican Food","Gilbert","AZ","85234",33.379351,-111.7224908,"0","Food, Ethnic Food, Restaurants, Specialty Food, Mexican"
"174",69606,"Wonton Chai Noodle","Scarborough","ON","M1S 5J5",43.7883024,-79.2699019,"1","Restaurants, Specialty Food, Chinese, Ethnic Food, Imported Food, Food"
"175",97864,"Lafayette","Montréal","QC","H2K 2H5",45.5232784795,-73.5515689063,"1","Imported Food, Pizza, Restaurants, Food, Specialty Food, Breakfast & Brunch, Greek, Hot Dogs, Ethnic Food, Burgers"
"176",55441,"The Franklin Inn","Pittsburgh","PA","15237",40.5783131,-80.0781165,"1","Mexican, Ethnic Food, Food, Restaurants, Specialty Food"
"177",52231,"Viet House","Toronto","ON","M6A 2T2",43.718375182,-79.4572345683,"1","Restaurants, Food, Specialty Food, Asian Fusion, Ethnic Food, American (New), Vietnamese, Canadian (New)"
"178",141896,"Sol Azteca","Rantoul","IL","61866",40.3060382272,-88.1557162551,"0","Imported Food, Tex-Mex, Food, Ethnic Food, Mexican, Specialty Food, Restaurants"
"179",29679,"Asian House","West Mifflin","PA","15122",40.3836653131,-79.8676539436,"1","Ethnic Food, Chinese, Restaurants, Thai, Food, Specialty Food"
"180",11013,"Bistro Du Beaujolais","Olmsted Falls","OH","44138",41.3739499,-81.9020698,"1","Bars, Restaurants, Food, Wine Bars, Nightlife, French, Specialty Food, Ethnic Food"
"181",47640,"Layla Grill & Hookah","Las Vegas","NV","89147",36.1138469,-115.281062,"1","Hookah Bars, Mediterranean, Lounges, Ethnic Food, Bars, Restaurants, Nightlife, Specialty Food, Food"
"182",96183,"Gallucci's Italian Foods","Cleveland","OH","44103",41.503759,-81.644042,"1","Event Planning & Services, Ethnic Food, Caterers, Food, Grocery, Beer, Wine & Spirits, Specialty Food"
"183",92973,"Brothers Pizza","Akron","OH","44310",41.1017153,-81.474992,"0","Food, Street Vendors, Specialty Food, Pizza, Ethnic Food, Restaurants, Bars, Nightlife"
"184",123701,"Saigon Grill","Vaughan","ON","L4J 8M5",43.8234306283,-79.4732210736,"0","Vietnamese, Imported Food, Asian Fusion, Ethnic Food, Restaurants, Food, Specialty Food"
"185",160565,"VMAM Asian Market","Las Vegas","NV","89123",36.0296633679,-115.1354251884,"0","Grocery, Food, Convenience Stores, Ethical Grocery, Ethnic Food, Specialty Food"
"186",71491,"Epoy's Filipino Fast Food","Las Vegas","NV","89102",36.144051,-115.198702,"0","Restaurants, Buffets, Ethnic Food, Food, Filipino, Specialty Food"
"187",102278,"Lo-lo's Chicken & Waffles","Phoenix","AZ","85034",33.4350179344,-111.9981269912,"1","Ethnic Food, Food, Specialty Food, Southern, Restaurants"
"188",59879,"Chopstick Foods","Scarborough","ON","M1L 1C4",43.6932914,-79.2799789,"1","Chinese, Food, Specialty Food, Ethnic Food, Restaurants, Imported Food"
"189",108302,"African Heritage Market","Charlotte","NC","28217",35.1684785,-80.8750347,"0","Imported Food, Ethnic Food, Grocery, Food, Herbs & Spices, Specialty Food"
"190",36680,"D' License to Grill","Toronto","ON","M4L 1Z8",43.6723558,-79.3218342,"0","Specialty Food, Halal, Food, Indian, Ethnic Food, Restaurants"
"191",184433,"Authentic Ethio African","Phoenix","AZ","85006",33.4659491565,-112.0438096799,"1","Restaurants, Gluten-Free, Ethnic Food, Vegetarian, Bakeries, Ethiopian, African, Food, Specialty Food"
"192",182026,"Fusion Sushi & China Bistro","Scottsdale","AZ","85260",33.6288709,-111.886982,"0","Specialty Food, Sushi Bars, Food, Ethnic Food, Restaurants, Asian Fusion, Chinese"
"193",44353,"Pho Rua Vang Golden Turtle","Toronto","ON","M6J 2Z2",43.646823,-79.4196807,"1","Restaurants, Specialty Food, Vietnamese, Ethnic Food, Food"
"194",101083,"Vienna Fine Foods","Scarborough","ON","M1K 1S4",43.7338749,-79.279494,"1","Sandwiches, Caterers, Modern European, Delis, Comfort Food, Restaurants, Food, Ethnic Food, Event Planning & Services, Specialty Food"
"195",115551,"Garam Masala","Mississauga","ON","L4Z 3K8",43.6137412,-79.6618322,"1","Food, Indian, Specialty Food, Restaurants, Ethnic Food, Buffets"
"196",122202,"Garden Asian Market","Middleton","WI","53562",43.0897491929,-89.4852011642,"1","Gas Stations, Grocery, Specialty Food, Food, Ethnic Food, Imported Food, Automotive, Convenience Stores"
"197",40839,"Aishwarya Garden","Brampton","ON","L6X 1R3",43.6862471,-79.762538,"0","Ethnic Food, Food Delivery Services, Indian, Restaurants, Specialty Food, Food"
"198",18044,"Essence Bakery Café","Tempe","AZ","85281",33.4216572978,-111.9511697429,"0","Restaurants, Breakfast & Brunch, Specialty Food, French, Food, Bakeries, Sandwiches, Cafes, Ethnic Food, American (New)"
"199",143883,"Al-Salam Market & Deli","Charlotte","NC","28213",35.314547,-80.702652,"1","Ethnic Food, Food, Delis, Specialty Food, Restaurants, Meat Shops, Grocery, Convenience Stores"
"200",100399,"Power King Restaurant","Markham","ON","L3R 9W4",43.8590641513,-79.3035399568,"0","Ethnic Food, Restaurants, Specialty Food, Food, Asian Fusion, Chinese"
"201",156181,"Lee Lee International Supermarket","Peoria","AZ","85381",33.5946788,-112.2222804,"1","Seafood Markets, Grocery, Specialty Food, Food, Ethnic Food"
"202",173984,"Waffallonia","Pittsburgh","PA","15260",40.4431216753,-79.9531468322,"1","Imported Food, Ethnic Food, Ice Cream & Frozen Yogurt, Coffee & Tea, Waffles, Restaurants, Specialty Food, Desserts, Food"
"203",61870,"Far East","Champaign","IL","61820",40.115755,-88.232332,"1","American (New), Specialty Food, International Grocery, Grocery, Food, Ethnic Food, Restaurants"
"204",66437,"Tim Choi Chinese Food","Scarborough","ON","M1J 3C5",43.7453698,-79.2204477,"1","Chicken Wings, Restaurants, Chinese, Specialty Food, Ethnic Food, Food"
"205",57196,"Krakow Foods","Parma","OH","44129",41.405453,-81.734089,"0","Grocery, Food, Specialty Food, Ethnic Food"
"206",165771,"Gardenia House Chinese Food","Etobicoke","ON","M9P 2T5",43.6953946,-79.5206546,"1","Food, Specialty Food, Restaurants, Ethnic Food, Chinese"
"207",147388,"Athens","North Versailles","PA","15137",40.3937442,-79.8192188,"1","Imported Food, Food, Specialty Food, Ethnic Food"
"208",173256,"Arizona Frybread","Phoenix","AZ","85032",33.6390234,-112.0312762,"0","American (New), Mexican, Desserts, Ethnic Food, Specialty Food, Food, Imported Food, Restaurants"
"209",30612,"Paul Wong's Fine Chinese Cuisine","Pickering","ON","L1V 6K4",43.810623,-79.129007,"1","Food, Chinese, Ethnic Food, Imported Food, Specialty Food, Restaurants"
"210",144496,"Wok This Way","Mississauga","ON","L5N 2R5",43.583552234,-79.7617641643,"1","Chinese, Restaurants, Imported Food, Food, Ethnic Food, Specialty Food"
"211",27265,"BBQ Boy and Catering","Las Vegas","NV","",36.175,-115.136389,"0","Specialty Food, Ethnic Food, Food Delivery Services, Food, Food Stands, Restaurants, Barbeque"
"212",39958,"Lee Town Chinese Restaurant","Toronto","ON","M5B 1S5",43.65855,-79.382072,"0","Restaurants, Ethnic Food, Food, Chinese, Specialty Food"
"213",177601,"Bombay Bazaar","Madison","WI","53719",43.0478829,-89.5025357,"0","International Grocery, Grocery, Meat Shops, Specialty Food, Ethnic Food, Shopping, Imported Food, Food, Jewelry"
"214",51887,"New Dynasty Restaurant","Calgary","AB","T3G 3T2",51.1280005539,-114.1961123074,"1","Restaurants, Imported Food, Chinese, Ethnic Food, Specialty Food, Food"
"215",28106,"Tonkatsu Kiyoshi","Las Vegas","NV","89139",36.0479852,-115.2244319,"1","Hawaiian, Specialty Food, Japanese, Ethnic Food, Food, Restaurants"
"216",46738,"Harbour City Restaurant","Calgary","AB","T2G 2B8",51.0502214,-114.0627067,"0","Food, Chinese, Ethnic Food, Restaurants, Specialty Food"
"217",65201,"The Owl of Minerva","Markham","ON","L3R 3P3",43.8481424693,-79.3495433839,"1","Imported Food, Restaurants, Korean, Ethnic Food, Specialty Food, Food"
"218",147392,"EDO","Toronto","ON","M5N 1A5",43.7039578,-79.4128512,"0","Specialty Food, Restaurants, Sushi Bars, Food, Japanese, Ethnic Food, Asian Fusion"
"219",63776,"Reyna Foods","Pittsburgh","PA","15222",40.4516463,-79.9835694,"1","Restaurants, Mexican, Ethnic Food, Food, Specialty Food, Grocery"
"220",126927,"Sidra Market","Las Vegas","NV","89119",36.0571445,-115.1286093,"1","International Grocery, Grocery, Fashion, Meat Shops, Specialty Food, Ethical Grocery, Women's Clothing, Shopping, Halal, Butcher, Food, Ethnic Food, Restaurants"
"221",162696,"Family Restaurant","Pittsburgh","PA","15227",40.3850657503,-79.9783793092,"0","Food, Pizza, Middle Eastern, Specialty Food, Greek, Ethnic Food, American (New), Restaurants"
"222",120635,"Crazy Ivans","Medina","OH","44256",41.134425,-81.8639337,"0","Restaurants, Food, Ethnic Food, Specialty Food, Mediterranean, Food Delivery Services"
"223",29537,"Oil & Vinegar","Las Vegas","NV","89135",36.148125,-115.3329749,"1","Shopping, Specialty Food, Kitchen & Bath, Herbs & Spices, Home & Garden, Gift Shops, Ethnic Food, Olive Oil, Flowers & Gifts, Food"
"224",183989,"Kabob Palace","Las Vegas","NV","89103",36.1010205,-115.2443122,"0","Ethnic Food, Restaurants, Greek, Specialty Food, Food, Persian/Iranian, Mediterranean"
"225",167167,"Allspice Bakery Cafe","Mississauga","ON","L5L 5S3",43.5253171,-79.6842468,"0","Ethnic Food, Specialty Food, Restaurants, Coffee & Tea, Bakeries, Food, Caribbean, Imported Food"
"226",66133,"P.O.C.'s Pierogi Market","Middleburg Heights","OH","44130",41.378297,-81.7878709,"1","Specialty Food, Food, Ethnic Food, Imported Food"
"227",111102,"Kim's Grocery Store","North Olmsted","OH","44070",41.416198,-81.922112,"0","Shopping, Grocery, Specialty Food, Ethnic Food, Food"
"228",62596,"Adisil","Charlotte","NC","28262",35.337406,-80.7570662,"0","Food, Coffee & Tea, Indian, Fast Food, Restaurants, Specialty Food, Ethnic Food"
"229",179200,"La Unica Supercenter Internacional","Charlotte","NC","28212",35.187315,-80.75685,"1","Imported Food, Restaurants, Food, Grocery, Butcher, Latin American, Specialty Food, Bakeries, Ethnic Food"
"230",89347,"Premium Sweets","Scarborough","ON","M1J 2H6",43.7435481,-79.2177143,"1","Bangladeshi, Restaurants, Specialty Food, Desserts, Food, Ethnic Food"
"231",51587,"Tora Sushi","Markham","ON","L3R 4G9",43.8154496499,-79.3445965515,"1","Imported Food, Restaurants, Japanese, Specialty Food, Food, Ethnic Food"
"232",153262,"People's Bakery","Madison","WI","53704",43.1029911,-89.3457048,"1","Specialty Food, Restaurants, Bakeries, Ethnic Food, Donuts, Food, Lebanese, Middle Eastern, Mediterranean"
"233",54011,"China Hot Wok","Las Vegas","NV","89129",36.2392627561,-115.2492712811,"1","Seafood, Specialty Food, Noodles, Restaurants, Food, Chinese, Ethnic Food"
"234",89066,"Umi Sushi Express","Calgary","AB","T2P 3S1",51.0509887,-114.0720484,"1","Specialty Food, Sushi Bars, Ethnic Food, Food, Restaurants"
"235",11456,"Nando's","Brampton","ON","L6Z 0E6",43.7077446,-79.7856743,"1","Food, Imported Food, Portuguese, Restaurants, Ethnic Food, Specialty Food"
"236",186134,"Golden House","Toronto","ON","M4T 1W5",43.6836767,-79.3925313,"1","Chinese, Ethnic Food, Food, Restaurants, Specialty Food"
"237",58272,"Shanghai House Chinese Restaurant","Mississauga","ON","L4Y 2X6",43.614331,-79.610814,"1","Food, Restaurants, Ethnic Food, Chinese, Specialty Food"
"238",22232,"Naco Gallery Café","Toronto","ON","M6K",43.6498459,-79.4369466,"0","Nightlife, Lounges, Bars, Arts & Entertainment, Specialty Food, Cafes, Ethnic Food, Food, Coffee & Tea, Shopping, Restaurants, Art Galleries"
"239",29242,"Palm Mediterranean Market","Las Vegas","NV","89052",36.0081867,-115.115534,"0","Food, Specialty Food, Ethnic Food"
"240",122495,"Pho Hien","Mesa","AZ","85202",33.4058218,-111.8752398,"0","Vietnamese, Restaurants, Specialty Food, Food, Ethnic Food, Asian Fusion"
"241",168114,"Bamboo-House Chinese Food","Calgary","AB","T1Y 5R4",51.0819588,-113.9405594,"1","Food Delivery Services, Restaurants, Specialty Food, Food, Chinese, Fast Food, Ethnic Food"
"242",48982,"Something Sweet 4 U","Brampton","ON","L6Y 0P6",43.6610560886,-79.731166547,"1","Restaurants, Food, Ethnic Food, Imported Food, Specialty Food, Filipino"
"243",141863,"Balkani","Montréal","QC","H2S 3S3",45.5363632,-73.6146289,"1","Imported Food, Food, Specialty Food, Meat Shops, Ethnic Food"
"244",126339,"Wing's Chinese House Take Out","Calgary","AB","T3B 4N7",51.1047446,-114.1879791,"1","Food, Chinese, Chicken Wings, Imported Food, Restaurants, Specialty Food, Ethnic Food"
"245",4027,"Teriyaki Sushi Express","Fitchburg","WI","53713",43.0256233,-89.4149181,"1","Restaurants, Food, Japanese, Specialty Food, Ethnic Food"
"246",63984,"Dnister Ukrainian Store","Toronto","ON","M5E 1C3",43.6490516,-79.3717741,"1","Imported Food, Food, Ethnic Food, Specialty Food"
"247",8325,"Kung Fu Duck","Toronto","ON","M1S 3T1",43.8050564856,-79.2901647091,"1","Food, Specialty Food, Imported Food, Ethnic Food"
"248",187359,"Cedarland Express","Cleveland","OH","44114",41.50325,-81.685402,"0","Food, Specialty Food, Restaurants, Ethnic Food, Imported Food, Middle Eastern, Lebanese"
"249",127557,"Asiana Market","Mesa","AZ","85202",33.3940473,-111.8729427,"1","Specialty Food, Food, Grocery, International Grocery, Ethnic Food"
"250",38111,"Le Caveau Szechwan","Montréal","QC","H4A 1G8",45.4711981,-73.6266922,"0","Ethnic Food, Kitchen & Bath, Specialty Food, Shopping, Home & Garden, Food"
"251",145724,"Tres Marias Mexican Market","Calgary","AB","T2T",51.0226142,-114.1059292,"1","Delis, Restaurants, Grocery, International Grocery, Specialty Food, Ethnic Food, Food"
"252",191758,"Pho Sate","Calgary","AB","T3R 0J4",51.172466,-114.158228,"1","Specialty Food, Food, Vietnamese, Restaurants, Ethnic Food"
"253",28853,"Honey-Bee Restaurant","Toronto","ON","M4L 1J4",43.6705944,-79.2986461,"1","Specialty Food, Food, Chinese, Restaurants, Ethnic Food"
"254",57382,"Atlantic Farmers Market","Charlotte","NC","28205",35.213196,-80.783028,"1","Grocery, Imported Food, Food, Ethnic Food, Meat Shops, Specialty Food"
"255",47862,"Helvetica Juice Bar & Cafe","Lakewood","OH","44107",41.483309,-81.770892,"0","Latin American, Food, Cafes, Specialty Food, Restaurants, Ethnic Food, Juice Bars & Smoothies"
"256",102653,"Bavaria Sausage","Fitchburg","WI","53719",43.007324685,-89.4837604716,"1","Specialty Food, Delis, Food, Imported Food, Ethnic Food, Meat Shops, Flowers & Gifts, Restaurants, Grocery, Shopping, Cheese Shops, Gift Shops"
"257",30505,"Shanghai Classic Restaurant","Calgary","AB","T3K 2X4",51.1282203,-114.0702364,"1","Chinese, Imported Food, Specialty Food, Restaurants, Ethnic Food, Food"
"258",113182,"Citi Wok","Aurora","ON","L4G 7Z9",44.0162779,-79.4472704,"1","Imported Food, Food, Restaurants, Chinese, Ethnic Food, Specialty Food, Asian Fusion"
"259",97411,"Vegas 808","Las Vegas","NV","89101",36.1730572,-115.1450046,"1","Specialty Food, Convenience Stores, Ethnic Food, Food, Candy Stores, Bagels"
"260",174387,"Supermarché Akhavan","Pierrefonds","QC","H9H 3P6",45.4785756655,-73.8667333209,"1","Food, Imported Food, Ethnic Food, Specialty Food"
"261",100422,"J & S Asian Cuisine","Aurora","ON","L4G 3G8",44.0098656029,-79.4450629503,"0","Asian Fusion, Restaurants, Food Delivery Services, Food, Ethnic Food, Chinese, Specialty Food"
"262",37948,"The Wokker Restaurant","Etobicoke","ON","M9C 5M1",43.648896,-79.604506,"1","Chinese, Restaurants, Specialty Food, Ethnic Food, Food, Imported Food"
"263",128594,"Hi-Ball Restaurant","Calgary","AB","T2N 2V2",51.0698303,-114.1308673,"0","Ethnic Food, Food, Shopping Centers, Specialty Food, Shopping, Restaurants, Chinese"
"264",64137,"Mirchi","Montréal","QC","H2Y 2B7",45.500781,-73.556162,"1","Ethnic Food, Food, Restaurants, Specialty Food, Indian"
"265",85233,"Afghan Kitchen","Mississauga","ON","L5A 1W8",43.583626,-79.612558,"1","Afghan, Asian Fusion, Ethnic Food, Restaurants, Food, Specialty Food"
"266",72089,"Pho Ling's","Markham","ON","L3R 3P3",43.84946,-79.347255,"1","Vietnamese, Ethnic Food, Food, Imported Food, Restaurants, Specialty Food"
"267",110705,"Yummy Market","York Regional Municipality","ON","L6A 4H6",43.8626993255,-79.4840282725,"1","Specialty Food, Ethnic Food, Bakeries, Grocery, Food, Imported Food"
"268",170668,"Ianiro's Imported Foods","Chardon","OH","44024",41.530716,-81.214318,"1","Imported Food, Food, Ethnic Food, Specialty Food"
"269",73815,"El Rey del Taco","Montréal","QC","H2R 1S7",45.5364466,-73.6159998,"1","Restaurants, Latin American, Specialty Food, Mexican, Ethnic Food, Food"
"270",146339,"Épicerie Coréenne & Japonaise","Montréal","QC","H3H 1M6",45.491332,-73.5825324,"1","Specialty Food, Food, Ethnic Food, Imported Food"
"271",71913,"Cherry Blossom Chinese Restaurant","Charlotte","NC","28277",35.0953817,-80.7780359,"1","Barbeque, Seafood, Ethnic Food, Chinese, Restaurants, Food, Specialty Food, Soup"
"272",172433,"Nana's Soul Food Kitchen","Charlotte","NC","28208",35.190176,-80.9219402,"1","Soul Food, Food, Specialty Food, Ethnic Food, Restaurants"
"273",108176,"India Grocers","Charlotte","NC","28213",35.2970329975,-80.7466637324,"1","Imported Food, Ethnic Food, Grocery, Food, Specialty Food"
"274",139116,"Garden Gate Restaurant","Toronto","ON","M4E 1H5",43.6724986,-79.2873733,"1","Imported Food, Specialty Food, Chinese, Ethnic Food, Food, Breakfast & Brunch, Asian Fusion, Restaurants"
"275",54643,"Marché Oriental Jang Teu - Décarie","Montréal","QC","H4A 3J2",45.4737049764,-73.6079985786,"1","Ethnic Food, Grocery, International Grocery, Food, Specialty Food, Imported Food"
"276",1335,"Punjabi Tadka","Brampton","ON","L6R",43.7645426989,-79.749285295,"1","Indian, Food Delivery Services, Ethnic Food, Food, Restaurants, Specialty Food, Desserts"
"277",132121,"New Ho King","Toronto","ON","M5T 2G7",43.6561548,-79.3996914,"1","Restaurants, Chinese, Specialty Food, Ethnic Food, Food"
"278",37832,"Pasta China","North Las Vegas","NV","89030",36.2395853666,-115.1146463554,"0","Asian Fusion, Restaurants, Ethnic Food, Specialty Food, Food, Italian"
"279",184551,"Taco Loco","Champaign","IL","61822",40.1421947,-88.2516073,"0","Ethnic Food, Restaurants, Specialty Food, Mexican, Food"
"280",6014,"La Perle","Dollard-des-Ormeaux","QC","H9H 3X4",45.480052,-73.842803,"1","Food, Chinese, Specialty Food, Ethnic Food, Home & Garden, Kitchen & Bath, Thai, Restaurants, Shopping, Imported Food"
"281",48818,"Las Dos Fronteras","Cleveland","OH","44109",41.4645484,-81.7094175,"1","Specialty Food, Restaurants, Mexican, Ethnic Food, Food"
"282",17328,"Spot Crepes & Tea","Toronto","ON","M5T 2G6",43.6564001433,-79.399150704,"1","Cafes, Specialty Food, Juice Bars & Smoothies, Asian Fusion, Food, Coffee & Tea, Creperies, Restaurants, Ethnic Food, Desserts"
"283",179667,"New Sky Restaurant","Toronto","ON","M5T 2G3",43.6554097,-79.3987492,"1","Restaurants, Food, Peruvian, Specialty Food, Chinese, Ethnic Food"
"284",29697,"Vivid Pizzeria & Restaurant","Toronto","ON","M6H 3B1",43.6786591,-79.4392235,"0","Pizza, Ethnic Food, Italian, Food, Specialty Food, Restaurants"
"285",162993,"Shiso Tree Cafe","Markham","ON","L3R 4G9",43.8155992,-79.3445652,"1","Ethnic Food, Food, Japanese, Coffee & Tea, Specialty Food, Restaurants, American (New), Italian"
"286",89403,"Owl of Minerva","Mississauga","ON","L5C 2T1",43.5679870602,-79.66080923,"1","Imported Food, Ethnic Food, Restaurants, Food, Korean, Specialty Food"
"287",147085,"Boulangerie Bocadillo","Montréal","QC","H2X 2V5",45.5146519,-73.5739183,"1","Imported Food, Specialty Food, Ethnic Food, Food"
"288",138468,"Cynthia's Chinese Restaurant","Newmarket","ON","L3X 1X4",44.035087,-79.4756759,"1","Specialty Food, Imported Food, Ethnic Food, Food, Caterers, Event Planning & Services, Chinese, Restaurants"
"289",100369,"Karpaty Pastry & Deli","Toronto","ON","M6S 1P9",43.6498334,-79.4833941,"0","Specialty Food, Delis, Food, Restaurants, Imported Food, Bakeries, Ethnic Food"
"290",56840,"Tortas Ahogadas El Pariente","North Las Vegas","NV","89030",36.2062789,-115.112654,"0","Imported Food, Bagels, Ethnic Food, Restaurants, Specialty Food, Mexican, Food"
"291",69896,"168 Market","Las Vegas","NV","89146",36.1263570098,-115.225879211,"1","Food, Meat Shops, Seafood Markets, Ethnic Food, Specialty Food, International Grocery, Grocery"
"292",100403,"La Poblanita Market and Grill","Fort Mill","SC","29708",35.0993019,-80.9337785,"0","Grocery, Ethnic Food, Restaurants, Specialty Food, Mexican, Food"
"293",123296,"Kom Jug Yuen Restaurant","Toronto","ON","M5T 2G3",43.655799,-79.3990373,"0","Restaurants, Ethnic Food, Chinese, Food, Specialty Food"
"294",104202,"Seoul Market","Las Vegas","NV","89119",36.1001961,-115.1269689,"0","Korean, Restaurants, Grocery, Specialty Food, Ethnic Food, Food"
"295",142631,"Sura Korean Restaurant","Calgary","AB","T2M",51.0730357311,-114.0711627371,"0","Korean, Specialty Food, Ethnic Food, Food, Restaurants"
"296",124337,"Tropical Thai Cuisine","Toronto","ON","M4E 1T3",43.6805738,-79.2856111,"1","Specialty Food, Food, Restaurants, Thai, Ethnic Food"
"297",56647,"El Cordobes","Las Vegas","NV","89122",36.1010948,-115.0633264,"1","Mexican, Food, Ethnic Food, Restaurants, Specialty Food"
"298",81476,"Kawaii Sushi and Asian Cuisine","Glendale","AZ","85310",33.7136149619,-112.2010483593,"1","Sushi Bars, Chinese, Japanese, Ethnic Food, Asian Fusion, Specialty Food, Restaurants, Food"
"299",166991,"Ali Baba","Toronto","ON","M5B 1S1",43.6580366,-79.3814547963,"1","Ethnic Food, Specialty Food, Restaurants, Food, Middle Eastern, Imported Food, Ethical Grocery"
"300",108955,"The Pierogi Palace","Willoughby","OH","44094",41.6428615637,-81.4277824146,"1","Imported Food, Ethnic Food, Restaurants, Fast Food, Specialty Food, Food"
"301",185008,"Bach Yen","Toronto","ON","M4M 1Y3",43.6666894,-79.3475323,"1","Thai, Restaurants, Imported Food, Food, Specialty Food, Juice Bars & Smoothies, Vietnamese, Ethnic Food"
"302",49653,"Nando's","Mississauga","ON","L5V 2X8",43.6102324844,-79.6983964618,"1","Food, Restaurants, Ethnic Food, Fast Food, Specialty Food"
"303",22042,"Greek Village Grille","Medina","OH","44256",41.1513887044,-81.8634129795,"0","Ethnic Food, Food, Specialty Food"
"304",63356,"Cardenas","Las Vegas","NV","89110",36.172441381,-115.07913085,"1","Ethnic Food, Specialty Food, Food, Grocery, Imported Food"
"305",185427,"Pizza Master Fusion","Calgary","AB","T3J 4J1",51.09892,-113.934085,"1","Imported Food, Food, Pizza, Restaurants, Ethnic Food, Specialty Food, Food Delivery Services"
"306",11039,"Tequileria","Charlotte","NC","28208",35.2202657317,-80.9432208587,"1","Mexican, Ethnic Food, Specialty Food, Restaurants, American (Traditional), Food"
"307",34493,"La Tiendita Colombian Restaurant","Mesa","AZ","85201",33.4154777,-111.8425801,"1","Food, Colombian, Arts & Crafts, Latin American, Couriers & Delivery Services, Restaurants, Cafes, Ethnic Food, Local Services, Shopping, Specialty Food"
"308",68234,"Felfela","Fairlawn","OH","44333",41.1241216,-81.6015029,"0","Restaurants, Ethnic Food, Specialty Food, Mediterranean, Falafel, Food"
"309",67181,"El Pacifico Botanas","Phoenix","AZ","85015",33.5226564,-112.0941341,"1","Imported Food, Food, Specialty Food, Seafood, Ethnic Food, Restaurants"
"310",91433,"Japan Mini Mart","Las Vegas","NV","89103",36.1147729708,-115.2011432026,"1","Videos & Video Game Rental, Convenience Stores, Food, Imported Food, Specialty Food, Books, Mags, Music & Video, Ethnic Food, Shopping"
"311",22856,"India Market","Pittsburgh","PA","15237",40.5430306,-80.0287562,"0","Specialty Food, Imported Food, Food, Ethnic Food"
"312",20121,"Ya Hala Bakery & Grill","North Olmsted","OH","44070",41.4185463,-81.9238549,"1","Food, Caterers, Shopping, Ethnic Food, Bakeries, Specialty Food, Tobacco Shops, Grocery, Arabian, Restaurants, Middle Eastern, Delis, Event Planning & Services, Meat Shops, Ethical Grocery"
"313",105091,"5 R Cha Thai Bistro","Mesa","AZ","85215",33.452185,-111.7008437,"1","Thai, Specialty Food, Coffee & Tea, Cafes, Food, Ethnic Food, Restaurants"
"314",39900,"Essentiellement Sol","Montréal","QC","H1V 1X3",45.54969,-73.5345589,"1","Imported Food, Ethnic Food, Restaurants, Organic Stores, Sandwiches, Vegetarian, Food, Specialty Food"
"315",70835,"Delicious Shawarma","Mississauga","ON","L5W 1G3",43.6407391,-79.7129689,"0","Food, Ethnic Food, Middle Eastern, Specialty Food, Restaurants"
"316",115984,"Mezza Lebanese Kitchen","Etobicoke","ON","M8Z 1N1",43.62582,-79.504395,"0","Middle Eastern, Specialty Food, Restaurants, Food, Ethnic Food"
"317",29733,"Ruby Burma","Montréal","QC","H2X 1A1",45.5146639,-73.5741543,"0","Ethnic Food, Specialty Food, Food, Burmese, Restaurants"
"318",137436,"Salvadoreno Restaurant","Mesa","AZ","85204",33.4092808,-111.7891338,"1","Food, Imported Food, Specialty Food, Restaurants, Ethnic Food, Salvadoran, Latin American, American (Traditional)"
"319",84739,"Mandarin Restaurant - Pickering","Pickering","ON","L1V 4L9",43.8498943,-79.0706519,"1","Buffets, Restaurants, Ethnic Food, Food, Chinese, Specialty Food"
"320",58080,"Asian Star","Leetsdale","PA","15056",40.559405,-80.205455,"1","Pan Asian, Specialty Food, Asian Fusion, Ethnic Food, Restaurants, Chinese, Food"
"321",99791,"Ave Maria Latin Café","Toronto","ON","M6G 1K8",43.6643448,-79.4143913,"1","Coffee & Tea, Restaurants, Grocery, Latin American, Food, Ethnic Food, Specialty Food"
"322",98689,"Teahouse Noodles","Cleveland","OH","44106",41.5034762,-81.6013396,"0","Restaurants, Food, Specialty Food, Juice Bars & Smoothies, Ethnic Food, Asian Fusion"
"323",162333,"Graceful Vegetarian Restaurant","Toronto","ON","M1V 4S5",43.824392,-79.302543,"1","Specialty Food, Food, Dim Sum, Cantonese, Gluten-Free, Vegetarian, Ethnic Food, Restaurants, Chinese, Imported Food"
"324",30461,"DJ's Taco Bar","Las Vegas","NV","89109",36.1065515,-115.1721097,"0","Tacos, Food, Specialty Food, Restaurants, Ethnic Food, Tex-Mex, Mexican"
"325",38851,"Markjoel's BBQ","Calgary","AB","T2A",51.0365263,-113.9889336,"1","Imported Food, Food, Specialty Food, Ethnic Food, Filipino, Restaurants"
"326",94884,"Bazaar Global Food Bar","Toronto","ON","M4S 2N2",43.705919,-79.3891807,"0","Restaurants, Specialty Food, Food, Canadian (New), Ethnic Food, Indian"
"327",37914,"Sunrise Caribbean Restaurant","Brampton","ON","L6Y 5X6",43.6654062,-79.7807694,"1","Ethnic Food, Food, Imported Food, Caribbean, Restaurants, Specialty Food"
"328",127283,"Pan Asian express","Las Vegas","NV","89119",36.0923008154,-115.1757475065,"1","Pan Asian, Food, Imported Food, Ethnic Food, Asian Fusion, Specialty Food, Restaurants"
"329",60579,"Lola's Kusina","Etobicoke","ON","M9W 1N7",43.7125719,-79.5635764,"1","Food, Specialty Food, Ethnic Food, Filipino, Restaurants"
"330",115277,"Paramount Middle Eastern Kitchen","Thornhill","ON","L3T 2B2",43.80585,-79.4209369,"1","Food, Ethnic Food, Restaurants, Middle Eastern, Halal, Specialty Food"
"331",88343,"A Taste Of Europe","Lakewood","OH","44107",41.4774553,-81.804895,"1","Ethnic Food, Specialty Food, Food, Grocery, Imported Food"
"332",83807,"Zorba's Greek Cafe","Chandler","AZ","85224",33.332531,-111.860304,"1","Mediterranean, Greek, Ethnic Food, Cafes, Specialty Food, Bars, Food, Restaurants, Nightlife"
"333",171963,"Peking Garden Restaurant","Scarborough","ON","M1E 2N8",43.7720677,-79.186138,"1","Restaurants, Specialty Food, Ethnic Food, Chinese, Imported Food, Food"
"334",128656,"Fresh Blend Coffee & Sandwich Bar","Calgary","AB","T3A 0Z9",51.0920607,-114.1539556,"1","Cafes, Bakeries, Restaurants, Korean, Food, Coffee & Tea, Ethnic Food, Sandwiches, Bagels, Specialty Food"
"335",47356,"Mekong Palace","Mesa","AZ","85202",33.413766,-111.876289,"1","Restaurants, Chinese, Cantonese, Ethnic Food, Food, Seafood, Dim Sum, Specialty Food"
"336",152997,"Quesada Burritos & Tacos","Brampton","ON","L6W 0A7",43.6800449,-79.7207071,"1","Food, Specialty Food, Imported Food, Mexican, Ethnic Food, Restaurants, Tex-Mex"
"337",153975,"Pennsylvania Macaroni Co","Pittsburgh","PA","15222",40.4512069,-79.9833796,"1","Specialty Food, Meat Shops, Food, Ethnic Food, Cheese Shops, Grocery"
"338",66175,"Cha Liu the Dim Sum Shop","Toronto","ON","M4P 2E6",43.7085732,-79.3987273,"0","Food, Chinese, Ethnic Food, Specialty Food, Restaurants, Dim Sum"
"339",109717,"Memories of Africa","Toronto","ON","M4A 1J8",43.725499,-79.312668,"1","Food, Restaurants, Ethnic Food, African, Specialty Food"
"340",155226,"East Africa Restaurant","Montréal","QC","H4A 1X7",45.4690489,-73.6191725,"1","Restaurants, Ethnic Food, Food, African, Specialty Food"
"341",128972,"Celline Garden Restaurant","Toronto","ON","M4M 1K1",43.6611553,-79.3399914,"0","Ethnic Food, Specialty Food, Food"
"342",154813,"Amarone Ristorante","Gilbert","AZ","85296",33.3355881,-111.7382864,"0","Italian, Food, Ethnic Food, Restaurants, Specialty Food"
"343",107265,"All Pierogi Kitchen & Euro Market","Mesa","AZ","85202",33.3781389,-111.8613802,"1","Ethnic Food, Food Delivery Services, Food, Restaurants, Polish, Specialty Food, Event Planning & Services, Caterers, Grocery, Ukrainian, Russian"
"344",114562,"Archi's Thai Bistro","Las Vegas","NV","89118",36.0732064948,-115.2435382178,"1","Restaurants, Ethnic Food, Thai, Food, Specialty Food"
"345",128779,"Sona Chaandi","Phoenix","AZ","85032",33.6038586944,-111.981109695,"1","Men's Clothing, Fashion, Food, Ethnic Food, Women's Clothing, Hair Removal, Department Stores, Shopping, Grocery, Jewelry, Beauty & Spas, Specialty Food"
"346",60010,"Bombay Food Market","Pittsburgh","PA","15213",40.4521243,-79.9517524,"1","Food, Ethnic Food, Do-It-Yourself Food, Grocery, Specialty Food, Imported Food"
"347",126449,"Hamdi Restaurant","Toronto","ON","M9W 5Z3",43.7143226,-79.5570968,"1","Specialty Food, Restaurants, African, Imported Food, Ethnic Food, Food"
"348",184611,"Café Mardi Gras Chez René","Montréal","QC","H2L 2J4",45.5223535,-73.5525611,"0","Cajun/Creole, Ethnic Food, Restaurants, Specialty Food, Food"
"349",95117,"La Taqueria","Richmond Heights","OH","44143",41.5395465,-81.496081,"1","Local Flavor, Food, Specialty Food, Mexican, Restaurants, American (New), Do-It-Yourself Food, Ethnic Food"
"350",160434,"River Tai Restaurant","Toronto","ON","M5S 1G5",43.6629816,-79.4030688,"1","Thai, Specialty Food, Chinese, Restaurants, Food, Ethnic Food"
"351",83632,"Sunny Foodmart","Toronto","ON","M9V 4B4",43.7423130433,-79.5904326698,"1","Ethnic Food, Imported Food, Specialty Food, Grocery, Food"
"352",97679,"On Luck Restaurant","Pointe-Claire","QC","H9R 5A2",45.4632625,-73.7833731,"1","Specialty Food, Food, Shopping, Ethnic Food, Kitchen & Bath, Imported Food, Home & Garden"
"353",143645,"Zam Zam World Foods","Phoenix","AZ","85008",33.4669617,-111.9959631,"0","Restaurants, Food, Halal, Imported Food, Grocery, Specialty Food, Indian, Ethnic Food"
"354",153604,"Inihaw Filipino Grill","Mississauga","ON","L5V 1V7",43.5924074359,-79.7037335113,"1","Imported Food, Specialty Food, Restaurants, Ethnic Food, Filipino, Food, Cafeteria"
"355",154506,"Manila Seafood Fresh & Ready","Las Vegas","NV","89104",36.1453449,-115.135507,"0","Food, Restaurants, Filipino, Grocery, Seafood Markets, Specialty Food, Ethnic Food"
"356",28920,"Marché Hawai","Montréal","QC","H1Z 4H7",45.580032,-73.622746,"1","Specialty Food, Ethnic Food, Asian Fusion, Restaurants, Farmers Market, Grocery, Imported Food, Food"
"357",25563,"Yang's Sushi","Markham","ON","L3R 9W6",43.859605,-79.314263,"1","Imported Food, Sushi Bars, Asian Fusion, Ethnic Food, Restaurants, Food, Specialty Food"
"358",186348,"Kowloon Dim Sum Restaurant","Toronto","ON","M5T 1L1",43.6560226,-79.3925088,"1","Dim Sum, Specialty Food, Ethnic Food, Food, Restaurants, Chinese"
"359",179528,"Uncle Maddio's Pizza Joint","Huntersville","NC","28078",35.4431372,-80.8596397,"1","Ethnic Food, Imported Food, Local Flavor, Food, Pizza, Restaurants, Specialty Food"
"360",11619,"Holland Store","North York","ON","M9N 2A6",43.709111,-79.534617,"1","Specialty Food, Grocery, Ethnic Food, Restaurants, Sandwiches, Food, Delis"
"361",172603,"Tung Tung Dan Quen King","Markham","ON","L3R 9V4",43.8263024,-79.3062592,"1","Specialty Food, Imported Food, Ethnic Food, Food"
"362",172075,"Decio Pasta","Tempe","AZ","85282",33.3794263,-111.9429897,"0","Pasta Shops, Restaurants, Food, Ethnic Food, Specialty Food"
"363",138180,"Moondoo Chinese Garden","York","ON","M6N 4Z9",43.6788971,-79.4736607,"0","Ethnic Food, Restaurants, Food, Specialty Food, Chinese"
"364",70901,"Big Bite Burrito","Markham","ON","L3S 3K1",43.8531969,-79.2558037,"1","Specialty Food, Food, Restaurants, Ethnic Food, Imported Food, Mexican"
"365",83831,"Feast Fast Food","Mississauga","ON","L5A 4K3",43.5803645,-79.6146305,"1","Korean, Imported Food, Food, Ethnic Food, Specialty Food, Restaurants"
"366",105715,"Pho Huong","Toronto","ON","M6P 2R1",43.665279,-79.4687625,"1","Ethnic Food, Vietnamese, Specialty Food, Food, Restaurants"
"367",89760,"Thi Thi Vietnamese Subs","Calgary","AB","T2G 2G3",51.0506829,-114.0604681,"1","Restaurants, Vietnamese, Sandwiches, Ethnic Food, Specialty Food, Food"
"368",179378,"Fiesta Filipina Cuisine","Henderson","NV","89183",36.0054036506,-115.117831742,"1","Fast Food, Food, Ethnic Food, Restaurants, Specialty Food, Filipino"
"369",130185,"Blue Danube Sausage House","Mississauga","ON","L4X 2G1",43.6218047,-79.575256,"1","Ethnic Food, Meat Shops, Desserts, Food, Smokehouse, Restaurants, Sandwiches, Specialty Food, Delis"
"370",49823,"Forbidden City Dim Sum & Seafood Restaurant","Calgary","AB","T2A 7X6",51.0609056069,-113.9842191533,"1","Imported Food, Chinese, Specialty Food, Seafood, Dim Sum, Ethnic Food, Restaurants, Food"
"371",126224,"China Magic Noodle House","Chandler","AZ","85224",33.3355999912,-111.8739256735,"1","Specialty Food, Restaurants, Food, Ethnic Food, Noodles, Donuts, Chinese"
"372",30027,"Gyro World","Cleveland","OH","44111",41.4506595928,-81.8146286532,"1","Greek, Ethnic Food, American (New), Food, Restaurants, Specialty Food"
"373",163528,"El Super","Phoenix","AZ","85016",33.481392,-112.014765,"1","Meat Shops, Fashion, Department Stores, Specialty Food, Ethnic Food, Shopping, Delis, Food, Grocery, Restaurants, Imported Food"
"374",94142,"Hissho Sushi At First In Flight Bar","Charlotte","NC","28208",35.2202807819,-80.9439801863,"1","Specialty Food, Ethnic Food, Sushi Bars, Restaurants, Japanese, Bars, Seafood, Nightlife, Food, Imported Food"
"375",106301,"Super G Mart","Charlotte","NC","28227",35.162832,-80.737656,"1","Seafood Markets, Ethnic Food, Grocery, Food, Specialty Food"
"376",119625,"Wok n Stix","Glendale","AZ","85308",33.65379,-112.23381,"0","Hawaiian, Specialty Food, Restaurants, Food, Chinese, Ethnic Food"
"377",157381,"Four Seasons Chinese Food Take-Out Service","Newmarket","ON","L3Y 3Y9",44.0540417,-79.45781,"1","Chinese, Specialty Food, Imported Food, Restaurants, Food, Ethnic Food"
"378",131742,"Amin Donairs","Calgary","AB","T2G 4X6",51.0496259,-114.062242,"0","Specialty Food, Middle Eastern, Food, Restaurants, Ethnic Food, Local Flavor"
"379",189925,"Little City Chinese Food","Calgary","AB","T2E 0A9",51.070313,-114.063019,"1","Imported Food, Food, Ethnic Food, Chinese, Specialty Food, Restaurants"
"380",55703,"Bamboo Garden","Brampton","ON","L6W 3E1",43.6945129,-79.7478308,"0","Restaurants, Specialty Food, Ethnic Food, Vietnamese, Food, Thai"
"381",190554,"Los Favoritos Taco Shop","Gilbert","AZ","85233",33.3661286,-111.8253252,"1","Mexican, Food, Restaurants, Specialty Food, Ethnic Food"
"382",189517,"Oriental Market","Mayfield Heights","OH","44124",41.5203968201,-81.4743402185,"1","Food, Imported Food, Ethnic Food, Specialty Food, Grocery"
"383",145411,"Canada Dosa Corner","Calgary","AB","T2A 4L7",51.0454764,-113.9570195,"0","Middle Eastern, Ethnic Food, Indian, Food, Specialty Food, Restaurants"
"384",26077,"Dev's Urban Cabana","Calgary","AB","T2R 0J3",51.0413065,-114.0813729,"0","Restaurants, Asian Fusion, Vegetarian, Indian, Specialty Food, Food, Ethnic Food"
"385",105872,"Maharajah East Indian Restaurant","Calgary","AB","T2G 2M2",51.0463561,-114.0580907,"0","Restaurants, Food, Middle Eastern, Ethnic Food, Indian, Specialty Food"
"386",148697,"Nina","Las Vegas","NV","89109",36.124423,-115.146372,"0","Ethnic Food, Japanese, Specialty Food, Food, Restaurants, Asian Fusion"
"387",37325,"Spring Roll Factory","Chandler","AZ","85226",33.3044272,-111.9479565,"0","Food, Vietnamese, Specialty Food, Restaurants, Ethnic Food"
"388",59654,"Noodle Pot II","Henderson","NV","89052",36.0058147,-115.1118566,"0","Chinese, Restaurants, Food, Ethnic Food, Noodles, Imported Food, Specialty Food, Taiwanese"
"389",170413,"Szechuan Szechuan Fine Chinese Cuisine","Toronto","ON","M5X 1B8",43.648637,-79.381524,"0","Specialty Food, Restaurants, Ethnic Food, Chinese, Food"
"390",23018,"Red Snapper Cafe","Ajax","ON","L1S 2H3",43.8510242,-79.0237337,"1","Beer, Wine & Spirits, Ethnic Food, Imported Food, Caribbean, Specialty Food, Restaurants, Food"
"391",1850,"Kim's Oriental Food","Cleveland","OH","44114",41.5123926,-81.6648943,"1","Food, Grocery, Specialty Food, Ethnic Food"
"392",150171,"Chinese Food Gallery","Etobicoke","ON","M9A 1C2",43.6437557507,-79.5333708976,"1","Specialty Food, Chinese, Food Delivery Services, Food, Ethnic Food, Restaurants"
"393",34824,"5Stars Shawarma & Grill","Mississauga","ON","L5R 3V2",43.5921223,-79.6666132,"0","Donairs, Restaurants, Imported Food, Middle Eastern, Mediterranean, Ethnic Food, Food, Specialty Food"
"394",186170,"Elegant Gifts","Phoenix","AZ","85083",33.7372461,-112.1549442,"1","Food, Flowers & Gifts, Gift Shops, Event Planning & Services, Local Services, Specialty Food, Ethnic Food, Shopping, Candy Stores"
"395",45681,"Buddha's Veggie Restaurant","Calgary","AB","T2H 0J8",51.0023884,-114.0713189,"1","Restaurants, Specialty Food, Chinese, Food, Vegetarian, Ethnic Food"
"396",173857,"Laurita's Taco Shop","Las Vegas","NV","89123",36.0285607,-115.1354155,"1","Food, Restaurants, Mexican, Breakfast & Brunch, Specialty Food, Ethnic Food"
"397",71282,"Frank's Bratwurst","Cleveland","OH","44178",41.484888,-81.703348,"1","Specialty Food, Hot Dogs, Food, Restaurants, Sandwiches, Food Trucks, Ethnic Food"
"398",57357,"Spadina Garden Restaurant","Toronto","ON","M5G 1C3",43.6557306,-79.3843604,"0","Asian Fusion, Indian, Chinese, Food, Ethnic Food, Restaurants, Specialty Food"
"399",20227,"Seafood City Supermarket","Las Vegas","NV","89119",36.1181769595,-115.1360216169,"1","Seafood Markets, Specialty Food, Food, Ethnic Food, Grocery, Filipino, Restaurants"
"400",33496,"Bhavya's International Market","Chandler","AZ","85225",33.3058321,-111.8087859,"0","Food, Grocery, Specialty Food, Ethnic Food"
"401",107141,"Aliments Balkan","Montréal","QC","H2R 2N4",45.5416755,-73.6152717,"0","Grocery, Specialty Food, Food, Ethnic Food, Imported Food"
"402",7908,"Que Ling Restaurant","Toronto","ON","M4M 2K1",43.6658026,-79.3494489,"1","Specialty Food, Ethnic Food, Food, Restaurants, Vietnamese, Imported Food"
"403",161018,"Pearl Court Restaurant","Toronto","ON","M4M 1Y2",43.6656732,-79.3506888,"1","Restaurants, Food, Imported Food, Ethnic Food, Chinese, Specialty Food, Dim Sum"
"404",107864,"Living Well","Toronto","ON","M3N 2V2",43.7571755,-79.5172087,"0","Food, Caribbean, Ethnic Food, Specialty Food, Restaurants"
"405",146377,"Heights Soulfood & Grille","Cleveland Heights","OH","44118",41.5010152689,-81.565641202,"1","Ethnic Food, American (Traditional), Restaurants, Southern, Specialty Food, Food, Soul Food"
"406",20699,"Little Divisoria","North Las Vegas","NV","89084",36.262351,-115.178165,"0","Ethnic Food, Food, Grocery, Hawaiian, Specialty Food, Restaurants, Asian Fusion"
"407",54711,"Lucky Garden Restaurant","Etobicoke","ON","M9B 1K8",43.6415962,-79.5380171,"1","Restaurants, Imported Food, Food, Chinese, Ethnic Food, Specialty Food"
"408",177704,"Pastries N Chaat","Phoenix","AZ","85032",33.6417906,-111.9945872,"1","Indian, Food, Bakeries, Restaurants, Ethnic Food, Specialty Food"
"409",43660,"Caribbean Cooker","Henderson","NV","89012",36.0272975,-115.0473614,"0","Restaurants, Food, Caribbean, Specialty Food, Ethnic Food"
"410",45731,"Caribbean Market Place","Phoenix","AZ","85051",33.553509,-112.14994,"0","Soul Food, Trinidadian, Food, Ethnic Food, Grocery, Restaurants, Specialty Food, Caribbean"
"411",191115,"Canton Kitchen Chartwell","Scarborough","ON","M1S 5B8",43.7976123,-79.2718731,"1","Imported Food, Ethnic Food, Specialty Food, Food"
"412",84316,"China Sea","Mississauga","ON","L4T 1A6",43.703428,-79.643912,"1","Imported Food, Specialty Food, Chinese, Ethnic Food, Food, Restaurants"
"413",1040,"Oriental City Restaurant","York","ON","M6M 1T2",43.6907078,-79.4718222,"1","Food, Specialty Food, Restaurants, Ethnic Food"
"414",87288,"Proberry","Mississauga","ON","L5V 3A4",43.5905618634,-79.6796431932,"1","Desserts, Ethnic Food, Ice Cream & Frozen Yogurt, Food, Specialty Food, Imported Food"
"415",148550,"Dirty South","Las Vegas","NV","89130",36.254519,-115.242815,"0","Southern, Restaurants, Soul Food, Specialty Food, Ethnic Food, Food"
"416",66998,"Hung Fok BBQ Gourmet","Toronto","ON","M2J",43.7857392633,-79.3521449783,"1","Dim Sum, Chinese, Ethnic Food, Restaurants, Barbeque, Specialty Food, Imported Food, Food"
"417",141895,"Manpasand Spice Corner","Pittsburgh","PA","15220",40.390587,-80.0724221,"1","Ethnic Food, Specialty Food, Imported Food, Food"
"418",165806,"New York Subs","West View","PA","15229",40.5165697903,-80.0346564129,"0","Sandwiches, Restaurants, Food, Specialty Food, Ethnic Food"
"419",67798,"Island Pacific Seafood Market","Las Vegas","NV","89147",36.1010606055,-115.2804628273,"1","Imported Food, Grocery, Filipino, Restaurants, Ethnic Grocery, Ethnic Food, Seafood, Specialty Food, Food, International Grocery"
"420",105723,"Marché Branche d'Olivier","Montréal","QC","H4C 1P3",45.4805179,-73.579561,"1","Ethnic Food, Health Markets, Imported Food, Specialty Food, Food"
"421",41931,"Cuban Foods Bakery & Restaurant","Phoenix","AZ","85029",33.5834916,-112.1508229,"1","Food, Specialty Food, Ethnic Food, Cuban, Mexican, Restaurants, Bakeries"
"422",7521,"King's Sausage","Las Vegas","NV","89101",36.166757,-115.135551,"0","Bars, Food, Restaurants, Nightlife, Hot Dogs, Specialty Food, Ethnic Food, Street Vendors"
"423",146592,"Taco Truck","Huntersville","NC","28078",35.4301817,-80.8427956,"1","Food Trucks, Specialty Food, Mexican, Ethnic Food, Restaurants, Food"
"424",112823,"Luxor Emporium Cafe","Calgary","AB","T2P 1A5",51.0467964,-114.0835655,"1","Specialty Food, Imported Food, Ethnic Food, Restaurants, Grocery, Food, Middle Eastern"
"425",83547,"Costa Vida Fresh Mexican Grill","Calgary","AB","T3R 0R5",51.1522324,-114.2108025,"1","Specialty Food, Desserts, Food, Restaurants, Mexican, Ethnic Food, Tex-Mex"
"426",17222,"Fong On Foods","Toronto","ON","M5T",43.6539212,-79.4006408,"1","Imported Food, Ethnic Food, Food, Specialty Food"
"427",88465,"Vova Patisserie","Verdun","QC","H4G 1J7",45.4740342819,-73.5704271876,"1","Bakeries, Desserts, Food, Ethnic Food, Specialty Food"
"428",83744,"Peng's Garden Chinese Restaurant","Aurora","ON","L4G 6H6",44.0025962,-79.4511732,"0","Chinese, Ethnic Food, Food, Specialty Food, Restaurants"
"429",6279,"Sun Win Chinese Restaurant","Pickering","ON","L1W 3R5",43.830323,-79.077723,"1","Restaurants, Imported Food, Ethnic Food, Food, Chinese, Specialty Food"
"430",191283,"Cardenas Market","Las Vegas","NV","89101",36.1737054,-115.1180834,"1","Ethnic Food, Imported Food, Food, Specialty Food, Grocery"
"431",26529,"Mother's Korean Grill","Las Vegas","NV","89102",36.1253808,-115.1959803,"0","Barbeque, Korean, Ethnic Food, Specialty Food, Vietnamese, Restaurants, Food"
"432",23673,"Al Premium Food Mart","Toronto","ON","M1L 2M6",43.7296670039,-79.2854772136,"1","Grocery, Food, Specialty Food, International Grocery, Ethnic Food, Bakeries"
"433",146618,"Olive Tree Food","North Olmsted","OH","44070",41.4156025,-81.9234726,"1","Ethnic Food, Ethnic Grocery, Meat Shops, Food, Specialty Food, Ethical Grocery, Grocery"
"434",26191,"Marché Sabor Latino","Montréal","QC","H2W 1Z8",45.5194484,-73.5846074,"1","Food, Ethnic Food, Specialty Food, Imported Food, Grocery"
"435",166488,"Sunset Restaurant and Grill","Pittsburgh","PA","15227",40.3785241085,-79.9908306496,"0","Food, Restaurants, Middle Eastern, Ethnic Food, Specialty Food"
"436",25737,"Stir Fry Paradise","Glendale","AZ","85308",33.6370916,-112.201447,"0","Restaurants, Ethnic Food, Food, Chinese, Specialty Food"
"437",86060,"Simply Greek","Bainbridge","OH","44023",41.4111229068,-81.3379609072,"0","Burgers, Restaurants, Ethnic Food, Salad, Food, Specialty Food, Greek"
"438",115367,"T & T Supermarket","Thornhill","ON","L4J 4P8",43.8080575639,-79.4520501901,"1","Chinese, Ethnic Food, Imported Food, Japanese, Specialty Food, Restaurants, Grocery, Food"
"439",155871,"Pupuseria Cabanas","Las Vegas","NV","89102",36.128606,-115.208703,"0","Imported Food, Ethnic Food, Specialty Food, Food"
"440",126445,"Cocina Oaxaqueña","Phoenix","AZ","85015",33.5242746383,-112.0987734307,"0","Imported Food, Mexican, Restaurants, Ethnic Food, Specialty Food, Food"
"441",122303,"Liberty Noodle","Toronto","ON","M6K 3P6",43.6387,-79.417724,"0","Food, Asian Fusion, Japanese, Ethnic Food, Specialty Food, Restaurants"
"442",191006,"Unimarket","Calgary","AB","T2G 5N3",51.009238772,-114.0634274483,"1","Mexican, Grocery, Specialty Food, Restaurants, Food, Ethnic Food, International Grocery"
"443",183845,"Kusina Ni Lorraine","Las Vegas","NV","89148",36.0978155097,-115.2977913219,"1","Restaurants, Specialty Food, Barbeque, Seafood, Soup, Grocery, Filipino, Food, Ethnic Food"
"444",162690,"The Kort Haus","Brampton","ON","L6W 4L2",43.6597768434,-79.7215695307,"0","Food, Pubs, Restaurants, Bars, Burgers, Nightlife, Canadian (New), Ethnic Food, Sports Bars, Beer, Wine & Spirits, Specialty Food"
"445",71355,"Mr. Shawarma","Airdrie","AB","T4B 2N1",51.2883725,-114.0122421,"1","Restaurants, Imported Food, Ethnic Food, Food, Specialty Food, Mediterranean, Lebanese, Middle Eastern"
"446",102641,"Casa Minhota","Montreal","QC","H2W 1Y4",45.5165158,-73.5781346,"1","Imported Food, Portuguese, Specialty Food, Ethnic Food, Food, Seafood, Tapas/Small Plates, Restaurants"
"447",141746,"Taco Bell","Glendale","AZ","85301",33.551075859,-112.1855707314,"1","Restaurants, American (New), Fast Food, Mexican, Food, Specialty Food, Tex-Mex, Ethnic Food"
"448",126820,"El Potrero Carniceria","Mesa","AZ","85210",33.408809,-111.845214,"1","Restaurants, Food, Meat Shops, Ethnic Food, Mexican, Specialty Food, Butcher"
"449",154310,"Albertsons","Las Vegas","NV","89117",36.143383,-115.29588,"1","Ethnic Food, Drugstores, Bakeries, Shopping, Specialty Food, Food, Grocery"
"450",3942,"Kuhar's Carryout","Mentor","OH","44060",41.6521118,-81.3771606,"1","Ethnic Food, Caterers, Specialty Food, Imported Food, Slovakian, Event Planning & Services, Restaurants, Food, German, Sandwiches"
"451",82299,"He He Long Bbq Take-Out Shop","North York","ON","M2H 1T1",43.7914915,-79.3660638,"1","Food, Ethnic Food, Specialty Food, Restaurants, Chinese, Imported Food"
"452",106270,"Don Mills Garden Chinese Cuisine","North York","ON","M3C 3L2",43.7357728,-79.3475238,"1","Food, Ethnic Food, Specialty Food, Imported Food"
"453",177681,"Joyah's Cooking Class","Henderson","NV","89015",36.0155729,-114.9780593,"1","Food, Specialty Food, Ethnic Food, Shopping, Caterers, Event Planning & Services, Arts & Crafts, Imported Food, Cooking Classes, Personal Chefs"
"454",113176,"Athens Imported Foods & Deli","Cleveland","OH","44129",41.4199954,-81.7278403,"1","Ethnic Food, Food, Imported Food, Specialty Food"
"455",79291,"Ruby's Kitchen","Calgary","AB","T1Y 6Z1",51.079836,-113.998009,"0","Imported Food, Food, Specialty Food, Ethnic Food"
"456",29907,"Mi Ne Sushi","Aurora","ON","L4G 7R2",44.018435,-79.447837,"1","Japanese, Sushi Bars, Specialty Food, Food, Restaurants, Ethnic Food"
"457",52678,"Quincy's Afro-Kitchen and Bar","Toronto","ON","M5A 2Z3",43.659812,-79.3663088,"1","Restaurants, African, Dance Clubs, Nightlife, Specialty Food, Food, Ethnic Food, Imported Food"
"458",89135,"Los Chicos Brasa","Markham","ON","L3S 0B6",43.8503882,-79.2539052,"0","Chicken Wings, Brazilian, Specialty Food, Latin American, Barbeque, Restaurants, Peruvian, Food, Ethnic Food"
"459",94341,"World Harvest Foods","Urbana","IL","61801",40.112615,-88.211391,"1","Cheese Shops, Food, Specialty Food, Ethnic Food, International Grocery, Delis, Restaurants, Olive Oil"
"460",179596,"Madison Oriental Market","Madison","WI","53713",43.0426988,-89.4039278,"0","Food, Specialty Food, Grocery, Bubble Tea, Ethnic Food"
"461",13337,"Riverbend Peking House","Calgary","AB","T2C 4E4",50.9779302,-114.014243,"1","Restaurants, Ethnic Food, Chinese, Imported Food, Specialty Food, Food"
"462",44421,"China City","Mississauga","ON","L5A 3V9",43.5992539,-79.6120169,"0","Chinese, Ethnic Food, Specialty Food, Food, Restaurants"
"463",138310,"Général Tao","Brossard","QC","J4Z 1A6",45.474573,-73.4657372,"1","Food, Restaurants, Chinese, Ethnic Food, Thai, Vietnamese, Imported Food, Specialty Food"
"464",43404,"Café Gitana","Montréal","QC","H2X 3K7",45.51634,-73.566517,"1","Bars, Coffee & Tea, Hookah Bars, Ethnic Food, Food, Nightlife, Specialty Food"
"465",70727,"Kenny's Delight","Markham","ON","L3R 3P3",43.8483542,-79.3482938,"0","Ethnic Food, Food, Specialty Food"
"466",146922,"Black Box Fix","lyndhurst","OH","44124",41.5032885,-81.5014104,"1","Food, Specialty Food, Food Delivery Services, Caterers, Restaurants, Event Planning & Services, Burgers, Ethnic Food, Sandwiches"
"467",82027,"Marché Hung Phat","Montréal","QC","H2S 2S5",45.5381906,-73.6138778,"1","Fruits & Veggies, Caterers, Delis, Ethnic Food, Vietnamese, Asian Fusion, Event Planning & Services, Restaurants, Grocery, Specialty Food, Food"
"468",86052,"Oja Noodles House","Toronto","ON","M4Y 2B2",43.6689926,-79.3859694,"1","Ethnic Food, Imported Food, Food, Chinese, Japanese, Korean, Specialty Food, Restaurants"
"469",152429,"Eats of Asia","Calgary","AB","T2H 0M1",50.9837973734,-114.0727854233,"0","Specialty Food, Farmers Market, Food, Restaurants, Ethnic Food, Asian Fusion"
"470",110957,"Nee How Chinese Food Market","North Olmsted","OH","44070",41.4308403,-81.8855353,"1","Food, Specialty Food, Imported Food, Ethnic Food, Beer, Wine & Spirits, Grocery"
"471",56387,"Asada Mexican Grill","Toronto","ON","M6G 3P7",43.680467,-79.4306272,"1","Food, Ethnic Food, Restaurants, Specialty Food, Mexican, Spanish"
"472",151296,"Salsita","Calgary","AB","T2L 0A1",51.082544,-114.096185,"1","Grocery, Ethnic Food, Mexican, Restaurants, Specialty Food, Food"
"473",61733,"August Moon","Calgary","AB","T2V 1M2",50.968875,-114.084553,"1","Imported Food, Chinese, Ethnic Food, Specialty Food, Restaurants, Food"
"474",150943,"Sterle's Country House","Cleveland","OH","44103",41.520771,-81.651582,"0","Specialty Food, Ethnic Food, Food, Nightlife, Restaurants, Bars, German, Eastern European, Modern European"
"475",6071,"Sunrise Caribbean Restaurant","Mississauga","ON","L4W 1V5",43.6255228,-79.604745,"1","Caribbean, Ethnic Food, Specialty Food, Imported Food, Restaurants, Food"
"476",45951,"Pho Tan Thanh","Peoria","AZ","85381",33.5954350654,-112.2204460949,"1","Food, Restaurants, Vietnamese, Ethnic Food, Imported Food, Specialty Food"
"477",36295,"Yoki Teriyaki Japan","Vaughan","ON","L4K 5Y6",43.8289169314,-79.5376071911,"0","Ethnic Food, Imported Food, Food, Specialty Food, Japanese, Restaurants"
"478",51061,"Wing Wing Restaurant","East York","ON","M4C 1N2",43.6908757,-79.289936,"1","Specialty Food, Ethnic Food, Food, Restaurants"
"479",179775,"Doner Kebab Chef RD","Phoenix","AZ","85032",33.6020499851,-111.9836961531,"1","Mediterranean, Restaurants, Ethnic Food, Food, Turkish, Imported Food, Specialty Food"
"480",4993,"Chipotle Mexican Grill","Tempe","AZ","85283",33.3779062,-111.9292867,"1","Tex-Mex, Ethnic Food, Mexican, Restaurants, Fast Food, Specialty Food, Food"
"481",164089,"Kenko Sushi & Teriyaki","Cleveland","OH","44106",41.5083472,-81.6055447,"1","Asian Fusion, Sushi Bars, Bubble Tea, Food, Ethnic Food, Japanese, Specialty Food, Restaurants"
"482",3500,"T & T Supermarket","Calgary","AB","T2A 6K5",51.0603948,-113.9848303,"0","Ethnic Food, Specialty Food, Food, Grocery"
"483",53798,"Thai Express","Toronto","ON","M3J 1P3",43.7748776774,-79.4946187281,"1","Specialty Food, Imported Food, Restaurants, Ethnic Food, Food, Thai"
"484",159865,"Leo Fu's Szechwan & Mandarin Restaurant","Calgary","AB","T2V 0P5",50.9902294,-114.0734142,"1","Restaurants, Imported Food, Food, Specialty Food, Chinese, Ethnic Food"
"485",151171,"Heinen's Grocery Store","Willoughby","OH","44094",41.6068627,-81.4422435,"1","Specialty Food, Health Markets, Ethnic Food, Meat Shops, Food, Grocery"
"486",104617,"Brandt Meats","Mississauga","ON","L4X 1K1",43.6170462,-79.5689656,"1","Specialty Food, Meat Shops, Ethnic Food, Food"
"487",196,"Los Compadres Meat Market","Las Vegas","NV","89103",36.1229614452,-115.2085035632,"1","Mexican, Ethnic Food, International Grocery, Restaurants, Grocery, Meat Shops, Food, Specialty Food"
"488",34188,"Vinayagar Vilas","Brampton","ON","L6W 3G1",43.6888683936,-79.7410468375,"1","Specialty Food, Imported Food, Food, Restaurants, Fast Food, Ethnic Food"
"489",157670,"Sangam Indian Cuisine","Cornelius","NC","28031",35.4878317,-80.874741,"1","Food, Seafood, Specialty Food, Restaurants, Pakistani, Indian, Ethnic Food, Halal"
"490",139992,"Mike's Kitchen","Baie-d'Urfé","QC","H9X 3B5",45.4109518,-73.911796,"0","Food, Specialty Food, Restaurants, Ethnic Food, Imported Food, Comfort Food"
"491",126674,"Noodle Delight","Scarborough","ON","M1T 1A3",43.7731783,-79.3216165,"1","Restaurants, Chinese, Specialty Food, Ethnic Food, Food, Imported Food"
"492",164543,"Tung Tung Dan Quen King","Markham","ON","L3R",43.8263024,-79.3062592,"1","Ethnic Food, Specialty Food, Imported Food, Food"
"493",170919,"De La Ana European Delicatessen Store","Phoenix","AZ","85021",33.5519381,-112.1004063,"1","Specialty Food, Delis, Beer, Wine & Spirits, Grocery, Food, Restaurants, Ethnic Food"
"494",3508,"China Cafe","Matthews","NC","28104",35.1220302,-80.6536745,"1","Restaurants, Chinese, Food, Ethnic Food, Specialty Food"
"495",9350,"O'Dine Japanese & Thai Fusion","Ajax","ON","L1Z 1W5",43.8638667,-79.0125628,"1","Specialty Food, Ethnic Food, Food, Thai, Japanese, Restaurants, Imported Food"
"496",125269,"Jerk King","Toronto","ON","M6H 1M8",43.6601965,-79.4346244,"1","Restaurants, Food, Ethnic Food, Caribbean, Imported Food, Specialty Food"
"497",119589,"Dragon House Chinese Buffet","Charlotte","NC","28209",35.1772095,-80.876766,"1","Restaurants, Chinese, Buffets, Specialty Food, Food, Ethnic Food"
"498",97576,"Chopstick","Charlotte","NC","28270",35.140787,-80.740696,"1","Ethnic Food, Restaurants, Chinese, Food, Specialty Food"
"499",125762,"Sichuan Palace","Pittsburgh","PA","15235",40.4623662678,-79.8267316637,"1","Imported Food, Ethnic Food, Chinese, Specialty Food, Restaurants, Szechuan, Food"
"500",165754,"The House of Rice Store","Scottsdale","AZ","85251",33.485339,-111.90836,"1","Food, Specialty Food, Japanese, Ethnic Food, International Grocery, Restaurants, Grocery"
"501",87761,"Quesada Burritos & Tacos","Dollard-des Ormeaux","QC","H9B 1Z8",45.485138,-73.796387,"1","Restaurants, Specialty Food, Tex-Mex, Mexican, Imported Food, Food, Ethnic Food"
"502",5182,"Chicagoland Hotdogs & More","Mesa","AZ","85205",33.4365129,-111.684937,"1","Restaurants, Food, Sandwiches, Imported Food, Specialty Food, Ice Cream & Frozen Yogurt, Hot Dogs, Ethnic Food"
"503",57950,"Indochine Thai Vietnamese Restaurant","Toronto","ON","M4W 1L7",43.6721547,-79.387466,"0","Food, Thai, Restaurants, Specialty Food, Vietnamese, Ethnic Food"
"504",167053,"Marché Epicure","Montréal","QC","H4P 1P6",45.4966161913,-73.6540818215,"1","Imported Food, Grocery, Specialty Food, Ethnic Food, Restaurants, Food, Delis"
"505",7766,"Sea-Hi Chinese Food","North York","ON","M6A 2E4",43.7338369,-79.4329198,"1","Ethnic Food, Chinese, Restaurants, Food, Specialty Food"
"506",27320,"Manotas Organics and Fine Foods","Toronto","ON","M5E 1C2",43.6489232,-79.3717226,"1","Ethnic Food, Imported Food, Organic Stores, Food, Specialty Food"
"507",17281,"S&D Polish Deli","Pittsburgh","PA","15222",40.4523578,-79.9820206,"1","Polish, Ethnic Food, Specialty Food, Food, Restaurants, Delis, Caterers, Event Planning & Services"
"508",70535,"Bayview Court Chinese Restaurant","Richmond Hill","ON","L4S 1P3",43.877191,-79.413853,"1","Chinese, Specialty Food, Food, Restaurants, Ethnic Food"
"509",18605,"KuoHua Trading Co.,","Markham","ON","L3R 2Z5",43.8219679,-79.3323714,"1","Grocery, Ethnic Food, Specialty Food, Food, Imported Food"
"510",115718,"Rock n Roll Sushi","Las Vegas","NV","89109",36.131973,-115.163728,"0","Ethnic Food, Japanese, Restaurants, Sushi Bars, Imported Food, Specialty Food, Food"
"511",79783,"Le Jardin Chow Mein Garden","Saint-Lambert","QC","J4P 2J5",45.5013231,-73.5108039,"1","Specialty Food, Kitchen & Bath, Food, Home & Garden, Shopping, Imported Food, Ethnic Food"
"512",147087,"Ah-So","Glendale","AZ","85308",33.6377381,-112.1898516,"1","Food, Restaurants, Steakhouses, Ethnic Food, Sushi Bars, Specialty Food, Japanese"
"513",120407,"Top Taste Takeout","Toronto","ON","M6H 2X2",43.6613514,-79.4297302,"1","Imported Food, Specialty Food, Food, Ethnic Food"
"514",134630,"Chipotle Mexican Grill","Avondale","AZ","85392",33.46439,-112.273204,"1","Specialty Food, Ethnic Food, Fast Food, Restaurants, Food, Mexican"
"515",189801,"Hue Gourmet","Mesa","AZ","85202",33.413559,-111.876111,"1","Imported Food, Ethnic Food, Restaurants, Vietnamese, Specialty Food, Food"
"516",149979,"Asia Food Company","Cleveland","OH","44114",41.5121553,-81.663332,"1","Imported Food, Japanese, Grocery, Food, International Grocery, Ethnic Food, Specialty Food, Restaurants"
"517",192353,"China City Super Buffet","Mesa","AZ","85209",33.3749476,-111.6870796,"1","Chinese, Ethnic Food, Food, Specialty Food, Restaurants, Buffets, Imported Food"
"518",98281,"Quesada Burritos & Tacos","Etobicoke","ON","M9W 1J1",43.6907266,-79.5767322,"1","Imported Food, Ethnic Food, Food, Restaurants, Mexican, Tex-Mex, Specialty Food"
"519",111855,"T Phat Supermarket","Pickering","ON","L1V 1C3",43.845649784,-79.0786798857,"0","Food, Specialty Food, Grocery, Ethnic Food"
"520",143135,"Orchid Room Fusion Cuisine","Calgary","AB","T2P 4K1",51.0455991,-114.0690246,"0","Thai, Vietnamese, Restaurants, Food, Shopping, Specialty Food, Shopping Centers, Ethnic Food, Asian Fusion"
"521",111684,"Montfort Grill House","Mississauga","ON","L5K 0A1",43.5270437,-79.6512965,"0","Restaurants, Mediterranean, Specialty Food, Ethnic Food, Food"
"522",70806,"Sushi Kawa","Calgary","AB","T2S 1W9",51.0333144715,-114.0713507227,"0","Sushi Bars, Restaurants, Ethnic Food, Japanese, Food, Specialty Food"
"523",125758,"Sedo Snax","Thornhill","ON","L3T 5W5",43.8198335,-79.389054,"1","Restaurants, Food, African, International Grocery, Ethnic Food, Specialty Food, Grocery"
"524",122029,"International Marketplace","Las Vegas","NV","89118",36.0995353,-115.2069423,"1","Imported Food, Ethnic Food, International Grocery, Seafood Markets, Food, Grocery, Specialty Food"
"525",78010,"Signature Indian Cuisine","Whitby","ON","L1N 2K4",43.8839022095,-78.9233587147,"1","Indian, Restaurants, Specialty Food, Food, Halal, Ethnic Food"
"526",38372,"Hawaiian Sun BBQ","Gilbert","AZ","85234",33.3803157,-111.7224984,"0","Ethnic Food, Specialty Food, Restaurants, Hawaiian, Food"
"527",157859,"Trip de Bouffe","Montréal","QC","H2T 1P6",45.5226972,-73.5841445,"1","Imported Food, Middle Eastern, Coffee & Tea, Restaurants, Lebanese, Food, Specialty Food, Bakeries, Ethnic Food"
"528",135742,"Grill It Up","Brampton","ON","L6T 3R5",43.7141284183,-79.7248532301,"1","Specialty Food, Imported Food, Ethnic Food, Food"
"529",12799,"Le Basilic Vert","Laval","QC","H7X 3S5",45.522464,-73.785926,"1","Vietnamese, Thai, Food, Asian Fusion, Restaurants, Specialty Food, Ethnic Food"
"530",94674,"Tandoori Flames","Calgary","AB","T3B 0N1",51.071895,-114.1631689,"0","Food, Specialty Food, Restaurants, Indian, Ethnic Food"
"531",61921,"Casablanca Kabab House","Champaign","IL","61820",40.1102799,-88.2298014,"0","Restaurants, Vegetarian, Middle Eastern, Food, Ethnic Food, Indian, Moroccan, Specialty Food"
"532",146215,"Madistan","Madison","WI","53703",43.0731595,-89.393608,"1","Food, Ethnic Food, Specialty Food, Mediterranean, Halal, Restaurants, Pakistani"
"533",132573,"Signature Palace Restaurant","Calgary","AB","T3H 2Y3",51.0357597,-114.1661796,"1","Specialty Food, Ethnic Food, Restaurants, Chinese, Food"
"534",77825,"Amir","Laval","QC","H7N 6J5",45.557276,-73.7250669,"1","Restaurants, Specialty Food, Imported Food, Food, Lebanese, Ethnic Food, Middle Eastern"
"535",146474,"La Neveria","Las Vegas","NV","89121",36.1307967122,-115.1166701915,"1","Ice Cream & Frozen Yogurt, Bakeries, Specialty Food, Juice Bars & Smoothies, Ethnic Food, Food, Gelato"
"536",74388,"Best Gyros","Mentor","OH","44060",41.6531470846,-81.3769994795,"0","Specialty Food, Ethnic Food, Greek, Food, Sandwiches, Restaurants, Mediterranean"
"537",148775,"Phoenix Produce Company","Phoenix","AZ","85004",33.4424962,-112.0739539,"1","Food, International Grocery, Fruits & Veggies, Specialty Food, Ethnic Food"
"538",179992,"Martinez Taco Bar","North Las Vegas","NV","89084",36.2865843,-115.1794971,"0","Ethnic Food, Mexican, Restaurants, Food, Specialty Food"
"539",22114,"Tasty Chinese Restaurant","York","ON","M6C 2C7",43.6995201,-79.4312592,"0","Restaurants, Ethnic Food, Specialty Food, Food, Chinese"
"540",169027,"Dunia Restaurant & Bar--Previously Ishtar","Toronto","ON","M9L 1Y9",43.7512433,-79.5520022,"1","Imported Food, Specialty Food, Ethnic Food, Food"
"541",23928,"4B Cafe","Oregon","WI","53575",42.9383678,-89.3835669,"0","Pubs, Nightlife, American (Traditional), Food, Tex-Mex, Fast Food, Mexican, Specialty Food, Bars, Ethnic Food, Restaurants"
"542",188490,"Chatime","Mississauga","ON","L5C 3G1",43.5779273302,-79.6524831751,"1","Juice Bars & Smoothies, Coffee & Tea, Bubble Tea, Food, Ethnic Food, Restaurants, Taiwanese, Tea Rooms, Specialty Food, Cafes"
"543",21552,"Jade Mountain Tea Company","Madison","WI","53704",43.102963,-89.349804,"1","Coffee & Tea, Taiwanese, Specialty Food, Restaurants, Ethnic Food, Food, Bubble Tea"
"544",53857,"POC's Pierogi Market","Richfield","OH","44286",41.240181,-81.636703,"1","Specialty Food, Food, Ethnic Food, Imported Food"
"545",4140,"Wasabi","Elyria","OH","44035",41.3476597,-82.0659375,"1","Specialty Food, Japanese, Ethnic Food, Restaurants, Imported Food, Food"
"546",166864,"Dragon Gate Restaurant","Calgary","AB","T2T 1Z4",51.0243329,-114.1083037,"1","Imported Food, Food, Specialty Food, Restaurants, Chinese, Ethnic Food"
"547",9110,"Bikkuri Japanese Restaurant","Toronto","ON","M4E 1E5",43.6705605,-79.2968727,"1","Restaurants, Japanese, Ethnic Food, Specialty Food, Sushi Bars, Food"
"548",87839,"South China","Toronto","ON","M4S 2M4",43.7019106,-79.387368,"1","Ethnic Food, Food, Restaurants, Chinese, Specialty Food"
"549",131509,"Satay On the Road","North York","ON","M5M 4A5",43.735275,-79.41965,"1","Ethnic Food, Specialty Food, Asian Fusion, Chinese, Restaurants, Food, Thai"
"550",183399,"Royal Paan","Mississauga","ON","L5V 1N5",43.5906318,-79.6796271,"1","Juice Bars & Smoothies, Specialty Food, Ethnic Food, Desserts, Imported Food, Food"
"551",170752,"The Beef Jerky Store","Las Vegas","NV","89101",36.170582,-115.1422946,"1","Food, Meat Shops, Ethnic Food, Organic Stores, Specialty Food, Candy Stores"
"552",180866,"Straight From Philly","Henderson","NV","89015",36.0364948,-114.9873517,"1","Burgers, Specialty Food, Restaurants, Cheesesteaks, Food, American (New), Sandwiches, Ethnic Food"
"553",73186,"Pho Winglee","Mesa","AZ","85202",33.4125028,-111.8737663,"1","Meat Shops, Specialty Food, Ethnic Food, Vietnamese, Restaurants, Food, Grocery"
"554",122988,"Sunuvkriti","Charlotte","NC","28227",35.203375,-80.720953,"0","Specialty Food, Ethnic Food, Food"
"555",113826,"Shirin Mahal Bakery & Sweets","Toronto","ON","M1V 5P6",43.831541,-79.264672,"0","Pakistani, Ethnic Food, Bakeries, Specialty Food, Imported Food, Food, Restaurants"
"556",70823,"Dragon Express","Mesa","AZ","85210",33.3783527282,-111.858223191,"1","Ethnic Food, Specialty Food, Chinese, Desserts, Food, Imported Food, Soup, Restaurants"
"557",78486,"YC's Mongolian Grill","Chandler","AZ","85286",33.2788302,-111.7904534,"1","Restaurants, Asian Fusion, Vegan, Chinese, Specialty Food, Mongolian, Food, Buffets, Ethnic Food, Vegetarian"
"558",21459,"Mi Ranchito","Pittsburgh","PA","15213",40.438522,-79.954807,"0","Restaurants, Food, Mexican, Ethnic Food, Specialty Food, Nightlife, Bars"
"559",160017,"Mandarin Restaurant - Toronto","Toronto","ON","M4S 2C6",43.7060318,-79.3985138,"1","Chinese, Restaurants, Food, Buffets, Ethnic Food, Specialty Food"
"560",46070,"Fai's Chinese Food","Calgary","AB","T3K 2M9",51.1270198,-114.0558875,"1","Restaurants, Imported Food, Chinese, Ethnic Food, Food, Specialty Food"
"561",43417,"Marché Branche d'Olivier","Verdun","QC","H4G 1W4",45.4605391,-73.5670454,"1","Shopping, Health Markets, Imported Food, Ethnic Food, Specialty Food, Bridal, Food"
"562",74812,"Los Altos Ranch Market","Glendale","AZ","85303",33.5107201,-112.2041144,"1","Specialty Food, Ethnic Food, Grocery, Food"
"563",50844,"Draco Wings","Las Vegas","NV","89131",36.2795221834,-115.2060141599,"0","Restaurants, Ethnic Food, Specialty Food, Food, Chicken Wings"
"564",20348,"Adobo Dragon","Phoenix","AZ","85004",33.4583806623,-112.073423995,"0","Food, Restaurants, Specialty Food, Asian Fusion, Latin American, Ethnic Food, Mexican, Seafood"
"565",34803,"Michael's Mexican Grill","Queen Creek","AZ","85142",33.2631705,-111.6686451,"0","Specialty Food, Restaurants, Food, Mexican, Ethnic Food"
"566",4719,"Rajbhog Indian Food Market & Cafe","Charlotte","NC","28262",35.3286761286,-80.7389116287,"1","Food, Indian, Imported Food, Specialty Food, Restaurants, Ethnic Food"
"567",138945,"Ohio City Pasta","Cleveland","OH","44113",41.4889125,-81.7127315,"1","Ethnic Food, Food, Specialty Food, Pasta Shops"
"568",82399,"Los Altos Ranch Market","Phoenix","AZ","85040",33.3931722,-112.0718493,"1","Grocery, Ethnic Food, Imported Food, Specialty Food, Food"
"569",109474,"Soaltee Restaurants","Mississauga","ON","L5M 1A1",43.6377303,-79.7281454,"0","Chinese, Restaurants, Indian, Food, Fast Food, Specialty Food, Ethnic Food"
"570",142905,"Lim's Chinese Restaurant","Phoenix","AZ","85033",33.494652,-112.2221676,"0","Cantonese, Chinese, Specialty Food, Food, Ethnic Food, Restaurants"
"571",140831,"Chopstix & Rice","Richmond Hill","ON","L4C 9V4",43.8676246,-79.4122612,"1","Ethnic Food, Imported Food, Restaurants, Chinese, Asian Fusion, Food, Specialty Food"
"572",9524,"Downtown Kabob Grill House","Toronto","ON","M4X 1L4",43.6706579,-79.3761613,"0","Middle Eastern, Food, Ethnic Food, Persian/Iranian, Specialty Food, Restaurants"
"573",34310,"Bocadillo","Montréal","QC","H2T 2S6",45.5200996399,-73.5864639282,"0","Ethnic Food, Food, Specialty Food"
"574",111948,"Nigerian Cuisine","Las Vegas","NV","89119",36.0986458,-115.1360641,"1","African, Specialty Food, Ethnic Food, Restaurants, Food"
"575",171553,"Sushi K Express","Toronto","ON","M9B 6L3",43.6324095,-79.5564805,"1","Restaurants, Imported Food, Specialty Food, Food, Japanese, Ethnic Food, Sushi Bars"
"576",5962,"Thai Island Vaughn Mills","Vaughan","ON","L4K 0A2",43.8256383,-79.5382147,"1","Ethnic Food, Specialty Food, Imported Food, Food"
"577",27616,"Saigon Red Sky","Calgary","AB","T3K 2M9",51.1270408604,-114.0557670593,"1","Food, Imported Food, Specialty Food, Restaurants, Ethnic Food, Vietnamese"
"578",5904,"Crazy Falafel","Montréal","QC","H3B 1A6",45.5045428,-73.5685214,"0","Restaurants, Imported Food, Specialty Food, Falafel, Mediterranean, Ethnic Food, Food"
"579",181109,"Patel Brothers","Middleburg Heights","OH","44130",41.3795994,-81.7897742,"1","International Grocery, Food, Ethnic Food, Specialty Food, Grocery"
"580",35647,"Yi Mei Champion Taiwan Deli","Las Vegas","NV","89102",36.1275239729,-115.1977960207,"1","Restaurants, Delis, Asian Fusion, Food, Specialty Food, Ethnic Food, Taiwanese, Chinese, Noodles"
"581",164331,"Vegas Express Sushi","Las Vegas","NV","89113",36.0443341804,-115.2443777212,"1","Ethnic Food, Grocery, Restaurants, Water Stores, Sushi Bars, Specialty Food, Food"
"582",126838,"New Century Grocery and Food","Charlotte","NC","28213",35.2571846,-80.7910992,"1","Imported Food, Food, Ethnic Food, Specialty Food"
"583",173158,"Tasty Chinese Food","Toronto","ON","M5T 3K5",43.6537184,-79.3909035,"1","Chinese, Food, Restaurants, Ethnic Food, Specialty Food"
"584",105909,"Thai Spice","Westlake","OH","44145",41.4559911,-81.8985725,"1","Specialty Food, Vietnamese, Food, Thai, Restaurants, Ethnic Food"
"585",127745,"Aster Garden Restaurant","Concord","ON","L4K 3P4",43.8199931,-79.5035172,"1","Imported Food, Food, Restaurants, Specialty Food, Chinese, Ethnic Food"
"586",65013,"Poke Express","North Las Vegas","NV","89032",36.2382459749,-115.150921382,"1","Restaurants, Food, Poke, Hawaiian, Specialty Food, Ethnic Food"
"587",172767,"Carniceria Los Reyes","Phoenix","AZ","85006",33.466357,-112.0473077,"1","Ethical Grocery, Food, Ethnic Food, Imported Food, Meat Shops, Convenience Stores, Specialty Food"
"588",71444,"Taj Palace","Las Vegas","NV","89123",36.015472516,-115.1171127611,"1","Specialty Food, Restaurants, Indian, Food, Beer, Wine & Spirits, Ethnic Food, Buffets, Halal"
"589",47407,"Famous Gyro George","Cleveland","OH","44128",41.4514589674,-81.5644928813,"1","Ethnic Food, American (Traditional), Restaurants, Specialty Food, Food"
"590",69415,"Spicy Hut","Calgary","AB","T2E 3S1",51.0514073,-114.0516808,"1","Ethnic Food, Thai, Food, Specialty Food, Seafood, Restaurants, Chinese"
"591",30285,"Portland Jerk","Brampton","ON","L6S 3L2",43.7352124,-79.7071206,"1","Restaurants, Ethnic Food, Specialty Food, Caribbean, Food, Imported Food"
"592",107456,"Shiraz Persian Cuisine","Calgary","AB","T3E 3C9",51.0135604832,-114.1398417939,"0","Ethnic Food, Food, Persian/Iranian, Specialty Food, Restaurants"
"593",140655,"A Bao Time","Charlotte","NC","28262",35.201444,-80.873595,"0","Food, Specialty Food, Ethnic Food, Food Trucks, Street Vendors"
"594",130780,"Sunny Foodmart","Markham","ON","L3S 4S1",43.8535279,-79.2551322,"1","Imported Food, Food, Grocery, Specialty Food, Ethnic Food"
"595",159007,"Tandoori Grill","Calgary","AB","T3C 1C2",51.0432634,-114.0948274,"1","Specialty Food, Restaurants, Ethnic Food, Indian, Food"
"596",35840,"Sugar Marmalade","Mississauga","ON","L5C 3X3",43.5772599054,-79.65325436,"1","Imported Food, Coffee & Tea, Restaurants, Ethnic Food, Chinese, Specialty Food, Taiwanese, Desserts, Food"
"597",12118,"Duke Dragon","Mississauga","ON","L4X 1M1",43.6196105874,-79.5734913074,"0","Specialty Food, Indian, Chinese, Asian Fusion, Restaurants, Food, Ethnic Food, Thai"
"598",56878,"Yuga East Indian Take Out & Sweet House","Calgary","AB","T2P 1B3",51.0459269,-114.0763241,"0","Ethnic Food, Food, Specialty Food, Restaurants, Imported Food, Indian"
"599",124206,"Max's Restaurant","Concord","ON","L4K 3B9",43.788602,-79.470939,"1","Specialty Food, Restaurants, Filipino, Asian Fusion, Food, Chicken Wings, Ethnic Food, Canadian (New)"
"600",56084,"Far East Foods","Calgary","AB","T2A 0P8",51.0380759,-113.993516,"1","Event Planning & Services, Food, Caterers, Imported Food, Specialty Food, Ethnic Food"
"601",167222,"MAI MAI Restaurant","Etobicoke","ON","M8V 1M4",43.5971934,-79.5233035,"1","French, Ethnic Food, Chinese, Restaurants, Food, Specialty Food"
"602",61164,"Biryani Depot","Toronto","ON","M1X 0A6",43.8363519,-79.2504694,"0","Food, Ethnic Food, Specialty Food, Restaurants, Indian"
"603",98652,"Omei Restaurant","Richmond Hill","ON","L4B 3K2",43.8428987685,-79.3903073296,"1","Specialty Food, Food, Restaurants, Chinese, Seafood, Ethnic Food"
"604",109930,"Shawarma Grill House","Toronto","ON","M4K 3W5",43.6897529387,-79.3489265442,"0","Restaurants, Ethnic Food, Turkish, Canadian (New), Specialty Food, Arabian, Food"
"605",168795,"Pita Basket - Sunridge","Calgary","AB","T1Y 7M4",51.0687438041,-113.9925689064,"1","Ethnic Food, Lebanese, Halal, Middle Eastern, Food, Mediterranean, Restaurants, Specialty Food"
"606",106782,"Little Bangkok Thai Restaurant","Las Vegas","NV","89104",36.1316401,-115.1908263,"0","Ethnic Food, Food, Specialty Food, Thai, Restaurants"
"607",594,"Lucky Oriental Grocery","Charlotte","NC","28205",35.2040991657,-80.7604955281,"1","Specialty Food, Ethnic Food, Imported Food, Food"
"608",31070,"Pai Northern Thai Kitchen","Toronto","ON","M5H 3G8",43.647866,-79.3886415,"1","Restaurants, Food, Thai, Ethnic Food, Specialty Food"
"609",182441,"Roberto's Taco Shop","Las Vegas","NV","89123",36.0003820004,-115.1543777436,"1","Mexican, Ethnic Food, Restaurants, Fast Food, Specialty Food, Food"
"610",186555,"Nicey's","Toronto","ON","M1W 2N6",43.7984513485,-79.3330585957,"1","Restaurants, Specialty Food, Caribbean, Grocery, Food, Ethnic Food"
"611",56773,"Krakow Foods","Parma","OH","44129",41.4036926,-81.7349874,"1","Specialty Food, Imported Food, Grocery, Food, Ethnic Food"
"612",19352,"911 Pizza","Las Vegas","NV","89139",36.045795,-115.2441173,"0","Food, Ethnic Food, Specialty Food"
"613",81026,"68 Kitchen","Toronto","ON","M1S 2C9",43.78722,-79.2778168,"1","Specialty Food, Food, Imported Food, Ethnic Food"
"614",107183,"Marcy Fine Foods","North York","ON","M2J 5B3",43.7751901,-79.3299538,"1","Specialty Food, Imported Food, Filipino, Grocery, Food, Ethnic Food, Restaurants"
"615",49199,"The Sugar Corner","Las Vegas","NV","89119",36.1006924561,-115.1394493587,"0","Restaurants, Latin American, Bakeries, Specialty Food, Ethnic Food, Breakfast & Brunch, Food, Cuban"
"616",153534,"Nakata Market of Japan","Las Vegas","NV","89146",36.145828,-115.241381,"1","Imported Food, Grocery, Food, Beer, Wine & Spirits, Shopping, Ethnic Food, Specialty Food"
"617",63585,"Bombay Gyro's and Lunch Box","Pittsburgh","PA","15215",40.4442059,-79.9955278,"0","Restaurants, Imported Food, Ethnic Food, Specialty Food, Mediterranean, Food, Fast Food"
"618",47052,"Agave Y Aguacate","Toronto","ON","M5T",43.6547745,-79.4021317,"0","Food, Restaurants, Mexican, Specialty Food, Local Flavor, Ethnic Food"
"619",123821,"Marché Sheng Tai","Dollard-des-Ormeaux","QC","H8Y 3C7",45.50346,-73.8171938,"1","Grocery, International Grocery, Food, Imported Food, Ethnic Food, Specialty Food"
"620",176671,"The Spice Box","Urbana","IL","61801",40.1049315,-88.224759,"1","Food, Education, Colleges & Universities, Specialty Food, Imported Food, Restaurants, Ethnic Food"
"621",50961,"Carnitas Mexican Guanajuato Restaurant","Matthews","NC","28104",35.140388,-80.623594,"1","Ethnic Food, Restaurants, Food, Specialty Food, Mexican"
"622",28633,"Rosario Ristorante","Glendale","AZ","85302",33.5704537,-112.1523698,"0","Mediterranean, Specialty Food, Ethnic Food, Food, Italian, Restaurants"
"623",134164,"Fuji Japanese Steakhouse","Charlotte","NC","28273",35.1029373522,-80.9848520092,"1","Japanese, Restaurants, Sushi Bars, Asian Fusion, Food, Ethnic Food, Specialty Food"
"624",158174,"Goodies Noodle House","Scarborough","ON","M1S 2B7",43.7869274,-79.2740715,"1","Specialty Food, Chinese, Restaurants, Ethnic Food, Food"
"625",122203,"Jaworski's Meats","Middleburg Heights","OH","44130",41.3598576426,-81.8138900399,"1","Food, Specialty Food, Delis, Butcher, Sandwiches, Polish, Restaurants, Ethnic Food"
"626",882,"House of Buddha","Georgetown","ON","L7G 3G2",43.6500248,-79.9266454,"1","Imported Food, Chinese, Food, Specialty Food, Ethnic Food, Restaurants"
"627",80313,"Mei Ling Chinese Food","Aurora","ON","L4G 1M5",43.9937551,-79.4656959,"1","Food, Specialty Food, Ethnic Food, Imported Food, Restaurants, Chinese, Asian Fusion"
"628",167135,"Diho Supermarket","Las Vegas","NV","89146",36.1265818,-115.2249877,"0","Specialty Food, Seafood Markets, Meat Shops, Food, Grocery, Ethnic Food, Fruits & Veggies"
"629",11876,"Berchicci","Saint-Leonard","QC","H1P 3G7",45.601492,-73.604833,"1","Ethnic Food, Grocery, Cheese Shops, Imported Food, Food, Specialty Food"
"630",29914,"Rendez-Vous","Toronto","ON","M4J 1M9",43.6826502,-79.3275985,"1","Ethiopian, Nightlife, Specialty Food, Food, Bars, Ethnic Food, Restaurants"
"631",97243,"Ninh Kieu Vietnamese Restaurant","Cleveland","OH","44114",41.512318,-81.6637391,"0","Restaurants, Vietnamese, Ethnic Food, Specialty Food, Food"
"632",157455,"unPhogettable","Mesa","AZ","85202",33.412909,-111.875826,"1","Specialty Food, Food, Ethnic Food, Restaurants, Vietnamese"
"633",123213,"Pokito","Toronto","ON","M5V 2A7",43.6485203,-79.3979855,"1","Hawaiian, Ethnic Food, Poke, Restaurants, Seafood, Asian Fusion, Food, Specialty Food"
"634",17137,"Moroccan Tent","Calgary","AB","T2Z 3J3",50.951053,-114.002982,"1","Restaurants, Moroccan, African, Food, Ethnic Food, Specialty Food"
"635",151970,"Villa Madina","Division No. 6","AB","T0M 0E0",51.24556,-113.98469,"1","Ethnic Food, Imported Food, Specialty Food, Food"
"636",1236,"Rice & Noodle","Toronto","ON","M6R 1A4",43.6403877,-79.4383381,"1","Local Services, Couriers & Delivery Services, Restaurants, Food, Specialty Food, Chinese, Ethnic Food"
"637",7964,"Mirchi Dhaba","Toronto","ON","M1H 2Y2",43.7673886,-79.228919,"1","Restaurants, Imported Food, Specialty Food, Ethnic Food, Food, Indian, Do-It-Yourself Food"
"638",54981,"Restaurant Tahiti","Chateauguay","QC","J6K 3A6",45.361048,-73.7139768,"1","Food, Shopping, Imported Food, Ethnic Food, Home & Garden, Asian Fusion, Restaurants, Kitchen & Bath, Specialty Food"
"639",46458,"Miyamoto- Epicerie Japonaise","Westmount","QC","H3Z 2N4",45.478421,-73.602753,"1","Restaurants, Food, Ethnic Food, Specialty Food, Sushi Bars, Grocery, Imported Food"
"640",58932,"Athena Greek Cuisine","Phoenix","AZ","85054",33.6556844,-111.9300279,"0","Food, Specialty Food, Greek, Ethnic Food, Middle Eastern, Mediterranean, Restaurants"
"641",138938,"Red Tea House","Scarborough","ON","M1V 1S8",43.8035014,-79.2974081,"1","Ethnic Food, Chinese, Specialty Food, Restaurants, Imported Food, Food"
"642",183520,"El Super","Las Vegas","NV","89102",36.1456766621,-115.2050033437,"1","Ethnic Food, Bakeries, Delis, Imported Food, Specialty Food, Food, Grocery, Restaurants, Fruits & Veggies"
"643",150537,"Anoush Middle Eastern Cuisine","Vaughan","ON","L4K 5C7",43.7966469,-79.5331189,"1","Specialty Food, Food, Imported Food, Ethnic Food, Middle Eastern, Restaurants"
"644",38311,"Pho Viet Vietnamese Restaurant","Glendale","AZ","85308",33.6400698,-112.1498222,"1","Soup, Restaurants, Ethnic Food, Specialty Food, Vietnamese, Food"
"645",70654,"Santa Maria","Madison","WI","53711",43.0374395,-89.4522816,"1","Food, Grocery, Imported Food, Specialty Food, Ethnic Food"
"646",124930,"El Fogón Dominican Restaurant","Gastonia","NC","28054",35.2613685105,-81.1703234911,"1","Restaurants, Caribbean, Nightlife, Cocktail Bars, Specialty Food, Ethnic Food, Dominican, Bars, Food"
"647",185424,"Aladdin's Eatery","Pittsburgh","PA","15228",40.3818982582,-80.0442885177,"1","Vegetarian, Mediterranean, Restaurants, Vegan, Specialty Food, Middle Eastern, Food, Ethnic Food"
"648",69018,"Chef's Door","Mississauga","ON","L5M 1X2",43.5808583,-79.7132953,"0","Mediterranean, Restaurants, Ethnic Food, Specialty Food, Halal, Middle Eastern, Food"
"649",158303,"Rumi's Market and Deli","Cleveland","OH","44103",41.5013407,-81.6304248,"1","Ethnic Food, Restaurants, Delis, Specialty Food, Food, Middle Eastern, Grocery"
"650",163945,"Celebrity Hotpot","Toronto","ON","M5T 2C2",43.6517002,-79.3979873,"0","Hot Pot, Specialty Food, Chinese, Restaurants, Do-It-Yourself Food, Ethnic Food, Food"
"651",109254,"Mekong Supermarket","Mesa","AZ","85202",33.413338,-111.8759932,"1","Ethnic Food, Shopping Centers, Grocery, Shopping, Specialty Food, International Grocery, Food, Imported Food"
"652",333,"Lambda Oriental Foods Supermarket","Calgary","AB","T2E 2R8",51.064898,-114.0630348,"1","Imported Food, Specialty Food, Ethnic Food, Food, Grocery"
"653",178204,"Sababa Grill","Montréal","QC","H2W 1Z8",45.5195835,-73.5848559,"0","Middle Eastern, Specialty Food, Restaurants, Food, Ethnic Food"
"654",187036,"Pick Up Stix","Las Vegas","NV","89109",36.099144,-115.173504,"1","Food, Ethnic Food, Specialty Food, Chinese, Restaurants, Fast Food, American (New), Imported Food"
"655",133016,"Codel","Scottsdale","AZ","85257",33.4793671,-111.9247231,"1","Ethnic Food, Food, Specialty Food, Imported Food"
"656",164781,"Yonge Market 506","Toronto","ON","M4Y 1X9",43.6631839,-79.3841559,"0","Convenience Stores, Ethnic Food, Local Flavor, Fruits & Veggies, Food, Specialty Food, Grocery"
"657",80238,"Malay Thai Famous Cuisine","Markham","ON","L3R 9W6",43.8497187752,-79.3472803384,"1","Ethnic Food, Restaurants, Food Court, Hotels & Travel, Imported Food, Food, Specialty Food, Thai, Car Rental"
"658",67246,"Aracely's Sazón Colombian Restaurant","Las Vegas","NV","89103",36.1230052,-115.2241611,"1","Food, Comfort Food, Colombian, Specialty Food, Breakfast & Brunch, Seafood, Ethnic Food, Restaurants, Latin American"
"659",170978,"Balkan Bakery","Phoenix","AZ","85022",33.6411185,-112.0473308,"0","Bakeries, Ethnic Food, Food, Desserts, Specialty Food"
"660",123451,"Viet Bistro","Las Vegas","NV","89128",36.1953124953,-115.2481780262,"1","Restaurants, Specialty Food, Ethnic Food, Food, Vietnamese"
"661",133904,"Zeta's Grill","Avondale","AZ","85392",33.4794135232,-112.3390910595,"1","Middle Eastern, Food, Mediterranean, Restaurants, Lebanese, Specialty Food, Ethnic Food, Vegetarian"
"662",11633,"Sal's Flatbread","Calgary","AB","T2S 0A5",51.0376957736,-114.0691827757,"0","Restaurants, Pizza, Gluten-Free, Ethnic Food, Bakeries, Specialty Food, Mediterranean, Breakfast & Brunch, Food"
"663",182524,"New York Subs & Burritos","Toronto","ON","M5V 2B3",43.6477808,-79.4018524,"1","Sandwiches, Ethnic Food, Indian, Mexican, Specialty Food, Kebab, Food, Restaurants"
"664",79710,"China Food","East York","ON","M4G 1W6",43.704546,-79.3663644,"1","Specialty Food, Ethnic Food, Food, Restaurants, Chinese"
"665",150975,"Indian Roti House","Toronto","ON","M4Y 2C5",43.6644362,-79.380259,"1","Food, Restaurants, Ethnic Food, Specialty Food, Indian"
"666",29266,"Satay On the Road","Toronto","ON","M4G 3B7",43.7055448,-79.3752949,"1","Thai, Restaurants, Specialty Food, Food, Ethnic Food"
"667",76604,"Cynthia's Chinese Restaurant","Thornhill","ON","L4J 7Y3",43.8093668566,-79.450343689,"1","Event Planning & Services, Ethnic Food, Caterers, Gluten-Free, Noodles, Chinese, Food, Restaurants, Specialty Food"
"668",108691,"Ferroni's Allegro Cafe & Bistro","Middlefield","OH","44062",41.4606667,-81.072891,"1","Coffee & Tea, Specialty Food, Food, Cafes, Bakeries, Ethnic Food, Restaurants"
"669",88171,"Jolly Good Chinese & Thai Food","Calgary","AB","T3E 0N2",51.0298193,-114.1349383,"1","Specialty Food, Ethnic Food, Chinese, Food, Food Delivery Services, Thai, Restaurants"
"670",172256,"Asian Supermarket","Champaign","IL","61820",40.128744,-88.258481,"1","International Grocery, Fruits & Veggies, Food, Specialty Food, Ethnic Grocery, Ethnic Food, Imported Food"
"671",46673,"99 Ranch Market","Las Vegas","NV","89102",36.1254888,-115.1952315,"1","Meat Shops, Food, Fruits & Veggies, Ethnic Food, Specialty Food, Grocery, Seafood Markets"
"672",24307,"Thinusha","Brampton","ON","L6W 3G2",43.6860989,-79.7376215,"1","Imported Food, Indian, Specialty Food, Sri Lankan, Restaurants, Food, Ethnic Food"
"673",177303,"Donlands Garden Chinese Restaurant","East York","ON","M4J 3S1",43.6932829,-79.3427095,"1","Specialty Food, Chinese, Restaurants, Ethnic Food, Food"
"674",43934,"Mexico Lindo","Toronto","ON","M1T 2M5",43.7897194,-79.3029814,"1","Restaurants, Ethnic Food, Food, Imported Food, Specialty Food, Mexican"
"675",133348,"EDO","Markham","ON","L6G 1A5",43.854317,-79.3352276,"0","Sushi Bars, Specialty Food, Restaurants, Food, Asian Fusion, Japanese, Ethnic Food"
"676",53223,"Asiana Market","Glendale","AZ","85308",33.6553194,-112.154248,"1","Specialty Food, Imported Food, Ethnic Food, Grocery, Health Markets, Food"
"677",102092,"Mom's Pierogies","Brooklyn","OH","44144",41.434595,-81.7458845,"1","Ethnic Food, Specialty Food, Food, Food Delivery Services, Ice Cream & Frozen Yogurt, Polish, Restaurants"
"678",147589,"Bagahon Singapore Bak Kwa Jerky","Markham","ON","L3R 0Y5",43.824173,-79.3055344,"0","Restaurants, Chinese, Malaysian, Ethnic Food, Specialty Food, Food, Singaporean"
"679",165118,"Very Fair Chinese Restaurant","Scarborough","ON","M1S 4R5",43.78373,-79.2877035,"1","Specialty Food, Chinese, Food, Restaurants, Dim Sum, Ethnic Food"
"680",165500,"Peace Ethiopian Market & Cafe","Las Vegas","NV","89103",36.1160529627,-115.2072609602,"1","Breakfast & Brunch, Specialty Food, Cafes, Food, Imported Food, Restaurants, Ethnic Food, Ethiopian"
"681",173231,"Lotus Inn","Toronto","ON","M4R 1B2",43.7050519,-79.4077077,"1","Restaurants, Pubs, Food, Bars, Specialty Food, Chinese, Ethnic Food, Nightlife"
"682",139434,"Just Soups Take Out & Catering","Toronto","ON","M1B",43.8011818,-79.1990738,"1","Imported Food, Restaurants, Specialty Food, Ethnic Food, Food, Soup, Caribbean"
"683",165916,"German Sausage","Phoenix","AZ","85018",33.4950076,-111.9758635,"1","Cheese Shops, Ethnic Food, Grocery, Meat Shops, Specialty Food, Food"
"684",188896,"Red Rice","Las Vegas","NV","89123",36.0182434258,-115.1180470926,"1","Comfort Food, Event Planning & Services, Salad, Food, Restaurants, Guamanian, Local Flavor, Barbeque, Caterers, Hawaiian, Specialty Food, Ethnic Food, Asian Fusion"
"685",170579,"Karachi Kitchen","Mississauga","ON","L5N 4B7",43.5800879914,-79.758184227,"1","Pakistani, Food, Restaurants, Ethnic Food, Specialty Food, Indian"
"686",184110,"Sushi Bomb","Las Vegas","NV","89129",36.2195112416,-115.3255732442,"1","Ethnic Food, Specialty Food, Food, Restaurants, Sushi Bars, Japanese"
"687",53410,"One Hour Cafeteria","Toronto","ON","M5T 2G6",43.6574135,-79.3993566,"0","Asian Fusion, Food, Restaurants, Chinese, Juice Bars & Smoothies, Specialty Food, Ethnic Food, Tea Rooms, Coffee & Tea"
"688",190343,"Golden West Restaurant","Calgary","AB","T3B 0B3",51.0721599,-114.159374,"1","Specialty Food, Food, Imported Food, Ethnic Food"
"689",84138,"Red Rose Chinese Food","East York","ON","M4K 3V2",43.6863539,-79.3478179,"0","Food, Specialty Food, Restaurants, Ethnic Food, Chinese"
"690",68141,"PaPa Chang's","Markham","ON","L3P 7R1",43.8914753583,-79.2656064034,"1","Taiwanese, Food, Asian Fusion, Ethnic Food, Specialty Food, Restaurants, Japanese"
"691",178659,"Crave Grill House","Toronto","ON","M9W 6N5",43.734934,-79.606376,"1","Restaurants, Imported Food, Specialty Food, Ethnic Food, Food, Halal"
"692",144029,"Paradise Hawaiian BBQ","Tempe","AZ","85281",33.4245349584,-111.9352028076,"1","Barbeque, Ethnic Food, Specialty Food, Hawaiian, Restaurants, Food, Korean"
"693",72519,"Bombay Bazaar","Las Vegas","NV","89119",36.1160937,-115.1378298,"0","Specialty Food, Ethnic Food, Food"
"694",155794,"Great Bao","Las Vegas","NV","89103",36.1104125,-115.2067011,"0","Street Vendors, Chinese, Ethnic Food, Food, Specialty Food, Restaurants"
"695",53386,"Mandarin Restaurant - Erin Mills","Mississauga","ON","L5L 3R8",43.5218855324,-79.685382843,"1","Restaurants, Ethnic Food, Food, Chinese, Specialty Food, Buffets"
"696",99130,"Pearl Harbourfront Chinese Cuisine","Toronto","ON","M5J 1A7",43.6388865,-79.380352,"1","Chinese, Noodles, Seafood, Restaurants, Specialty Food, Food, Ethnic Food, Dim Sum, Japanese, Soup"
"697",75053,"Dragon Delight","Toronto","ON","M6C 1B9",43.680416,-79.431034,"1","Restaurants, Food, Ethnic Food, Chinese, Specialty Food"
"698",71260,"Marché G & D","Montréal","QC","H2Z 1J4",45.5075837783,-73.5591155291,"1","International Grocery, Specialty Food, Ethnic Food, Grocery, Food, Local Flavor, Imported Food"
"699",168800,"Chinatown","Fort Mill","SC","29708",35.1027129831,-80.990064621,"1","Food, Chinese, Imported Food, Restaurants, Specialty Food, Ethnic Food"
"700",83267,"Yafo Kitchen","Charlotte","NC","28211",35.1565581319,-80.8243272454,"1","Mediterranean, Food, Restaurants, Greek, Middle Eastern, Ethnic Food, Specialty Food"
"701",161677,"Irie Patties - Caribbean Street Food","Richmond Heights","OH","44143",41.541804,-81.492915,"0","Restaurants, Food, Food Court, Specialty Food, Caribbean, Ethnic Food"
"702",50552,"Tan Phat Market","Phoenix","AZ","85013",33.5101779,-112.0961681,"1","Shopping, Imported Food, Food, Ethnic Food, Specialty Food"
"703",191358,"Seoul Market","Phoenix","AZ","85051",33.5665987,-112.1511951,"1","Food, Grocery, Specialty Food, Ethnic Food"
"704",120025,"Lindo Michoacan Paleteria y Neveria","Las Vegas","NV","89121",36.09884,-115.116357,"0","Ethnic Food, Specialty Food, Food, Desserts, Ice Cream & Frozen Yogurt"
"705",161496,"Mucho Burrito","Toronto","ON","M1B",43.7975883246,-79.1494368642,"1","Mexican, Imported Food, Food, Specialty Food, Ethnic Food, Restaurants"
"706",44502,"Desi Corner","Mississauga","ON","L5A 1W2",43.5809349,-79.615335,"1","Ethnic Food, Restaurants, Indian, Specialty Food, Food, Halal, Grocery"
"707",61718,"Republic Ramen + Noodles","Tempe","AZ","85281",33.4215513185,-111.9167033545,"1","Restaurants, Food, Soup, Noodles, Specialty Food, Japanese, Ramen, Ethnic Food"
"708",184968,"Mimosa Vietnamese Restaurant","Calgary","AB","T2Y 3S6",50.9013478591,-114.0678551108,"1","Vietnamese, Food, Ethnic Food, Specialty Food, Restaurants"
"709",49158,"Honey Bun's Cafeteria","Charlotte","NC","28227",35.1626388384,-80.7380765199,"1","Imported Food, Specialty Food, Restaurants, Chinese, Ethnic Food, Dim Sum, Food"
"710",152061,"Sum Kee Noodle House","Toronto","ON","M4M 1Z8",43.6692265,-79.3358515,"0","Chinese, Specialty Food, Food, Ethnic Food, Restaurants"
"711",42100,"Baiz Market Place","Phoenix","AZ","85006",33.4549864,-112.0386014,"1","Bakeries, Food, Restaurants, Ethnic Food, Mediterranean, Specialty Food, Middle Eastern, Halal, Meat Shops, Grocery, International Grocery"
"712",84638,"Golden Key European Food Market","Indian Trail","NC","28079",35.0875727,-80.6560585,"1","Food, Ethnic Food, Imported Food, Specialty Food"
"713",113808,"Manna Sushi","Calgary","AB","T2L 1V9",51.1013583,-114.1402969,"1","Ethnic Food, Sushi Bars, Japanese, Imported Food, Food, Specialty Food, Restaurants"
"714",53196,"Khan Caterer","Calgary","AB","T3J 3K9",51.0982015,-113.9585102,"1","Event Planning & Services, Imported Food, Food, Specialty Food, Ethnic Food, Caterers"
"715",103622,"Sushi Garden","Newmarket","ON","L3Y 3E3",44.0761186,-79.4338628,"1","Japanese, Specialty Food, Sushi Bars, Restaurants, Food, Ethnic Food"
"716",164024,"Beijing Chinese Cuisine","Charlotte","NC","28203",35.2134281938,-80.8555153012,"1","Food, Restaurants, Chinese, Ethnic Food, Specialty Food"
"717",38522,"Old Fashioned Meat and Deli","Calgary","AB","T2G 4A9",51.0166165152,-114.0534496307,"1","Imported Food, Ethnic Food, Specialty Food, Food"
"718",127121,"Old Town Sarajevo","Phoenix","AZ","85051",33.5527211,-112.1326356,"1","Mexican, Modern European, Specialty Food, Restaurants, Ethnic Food, Food"
"719",56470,"Sakun Thai","Las Vegas","NV","89119",36.0571445,-115.1286093,"0","Thai, Restaurants, Salad, Ethnic Food, Specialty Food, Food"
"720",46956,"Flame Kabob","Las Vegas","NV","89146",36.1592455,-115.2327223,"0","Ethnic Food, Middle Eastern, Restaurants, Persian/Iranian, Specialty Food, Food"
"721",142175,"Maple Garden Chinese Restaurant","Maple","ON","L6A 1W4",43.8566241,-79.512542,"1","Chinese, Restaurants, Food, Imported Food, Specialty Food, Ethnic Food"
"722",82094,"Izumi Sushi","Calgary","AB","T2W 3X4",50.9637177226,-114.0729225724,"1","Specialty Food, Japanese, Ethnic Food, Restaurants, Food"
"723",84155,"Chuen May Food Products","Calgary","AB","T2G 2G3",51.050189,-114.0602391,"1","Food, Imported Food, Specialty Food, Chinese, Restaurants, Ethnic Food, Dim Sum"
"724",59883,"China City","Cleveland","OH","44144",41.4415234,-81.7227691,"1","Food, Specialty Food, Ethnic Food, Asian Fusion, Chinese, Restaurants, Szechuan"
"725",92307,"Luubaan Restaurant","Calgary","AB","T3C 0R2",51.0425364,-114.0949885,"1","Imported Food, Ethnic Food, Specialty Food, Food"
"726",179752,"Aladdin's Eatery","Hudson","OH","44111",41.2406396,-81.4426849,"1","Restaurants, Food, Specialty Food, Middle Eastern, Ethnic Food"
"727",90506,"Chef Chan","Markham","ON","L3P 1Y6",43.8838701,-79.2613019,"1","Restaurants, Chinese, Specialty Food, Food, Ethnic Food, Imported Food, Food Delivery Services, Fast Food, Comfort Food"
"728",90416,"Dragon House","Willowdale","ON","M2N 3A8",43.764466,-79.396091,"1","Food, Ethnic Food, Specialty Food, Chinese, Restaurants"
"729",34757,"Kobe Sushi","Mississauga","ON","L4Z 3M2",43.605611,-79.650811,"0","Restaurants, Japanese, Food, Seafood Markets, Specialty Food, Sushi Bars, Ethnic Food"
"730",75880,"Pita Land","Mississauga","ON","L5R 3E7",43.6055365,-79.6529012,"1","Sandwiches, Restaurants, Middle Eastern, Ethnic Food, Food, Specialty Food, Halal"
"731",40754,"Park To Shop","Cleveland","OH","44114",41.5086803,-81.6703405,"1","Food, Specialty Food, Ethnic Food, Imported Food, Grocery"
"732",84989,"Zen International Market","Charlotte","NC","28210",35.094831,-80.86492,"0","Grocery, Ethnic Food, Specialty Food, Food"
"733",50824,"New Spiceland Super Market","Toronto","ON","M1V 5P6",43.8371148,-79.2489079,"1","Specialty Food, Imported Food, Convenience Stores, Food, Ethnic Food, Grocery"
"734",41240,"Surya Restaurant","Calgary","AB","T3C 0M5",51.042866,-114.0892996,"0","Pakistani, Specialty Food, Indian, Food, Restaurants, Middle Eastern, Ethnic Food, Event Planning & Services, Caterers"
"735",2009,"Odalys Bakery","Charlotte","NC","28217",35.1474193,-80.8756992,"1","Specialty Food, Food, Imported Food, Ethnic Food"
"736",18819,"Thai Express","Pickering","ON","L1V 1B8",43.835919,-79.086181,"1","Food, Imported Food, Thai, Restaurants, Specialty Food, Ethnic Food"
"737",190219,"China Rose Restaurant","Calgary","AB","T2A 6J9",51.050224,-113.99266,"1","Buffets, Food, Specialty Food, Chinese, Ethnic Food, Restaurants"
"738",155244,"Hot Wok Restaurant","Mesa","AZ","85204",33.4071828572,-111.7742541455,"1","Food, Restaurants, Specialty Food, Ethnic Food, Chinese"
"739",183056,"Jalapeño's Mexican Grill","Calgary","AB","T2P 0K4",51.049937,-114.07937,"0","Mexican, Restaurants, Food, Specialty Food, Ethnic Food, Latin American"
"740",62081,"New Saigon Gourmet","Toronto","ON","M6G 1Z4",43.6716755,-79.4207827,"0","Vietnamese, Food, Ethnic Food, Restaurants, Chinese, Specialty Food"
"741",71992,"Ta Pies","Montréal","QC","H2V 4E3",45.51688,-73.590151,"1","Ethnic Food, Fast Food, Steakhouses, Breakfast & Brunch, Restaurants, Specialty Food, Bakeries, British, Food, Australian, Comfort Food"
"742",172710,"ViVetha Bistro","Toronto","ON","M4E 1H9",43.6736249,-79.2821106,"1","American (New), Gluten-Free, Specialty Food, Restaurants, Breakfast & Brunch, Ethnic Food, Canadian (New), Food, Italian, Professional Services"
"743",26176,"Sunseri Jimmy & Nino","Pittsburgh","PA","15222",40.4509544,-79.9845941,"1","Food, Ethnic Food, Restaurants, Italian, Specialty Food, Imported Food"
"744",157615,"Insadong Korean BBQ Restaurant","Calgary","AB","T2A 6L8",51.061637,-113.981058,"1","Ethnic Food, Specialty Food, Food, Restaurants, Korean, Imported Food, Barbeque"
"745",145512,"E-Mart","Calgary","AB","T3E 0C2",51.038539261,-114.1395123894,"1","Food, Grocery, Ethnic Food, Specialty Food"
"746",102174,"Ginger & Onion Cuisine","Markham","ON","L3R 0T4",43.828703,-79.306172,"0","Ethnic Food, Restaurants, Food, Specialty Food, Chinese, Dim Sum"
"747",153115,"Lee Lee International Supermarkets","Chandler","AZ","85224",33.3362676,-111.8741442,"1","Food, Grocery, Beer, Wine & Spirits, Seafood Markets, Ethnic Food, Specialty Food"
"748",190028,"Yanni's Greek Grill","Las Vegas","NV","89123",36.0148375673,-115.1712629619,"1","Ethnic Food, Restaurants, Greek, Specialty Food, Food"
"749",81150,"Phoenix Farms","Phoenix","AZ","85015",33.4870409,-112.0999457,"0","Imported Food, Ethnic Food, Grocery, Specialty Food, Food"
"750",53330,"The Bake Chef Company","Calgary","AB","T2N 1N4",51.0784729366,-114.1314021554,"1","Vietnamese, Food, Grocery, Ethnic Food, Bakeries, Restaurants, Specialty Food"
"751",147871,"Uncle Tony's Pizza","Phoenix","AZ","85021",33.552894,-112.100054,"1","Specialty Food, Italian, Restaurants, Salad, Ethnic Food, Food, Pizza"
"752",80263,"Bowl Of Pho","Woodmere","OH","44122",41.4633454,-81.4854769,"1","Vietnamese, Restaurants, Specialty Food, Ethnic Food, Soup, Food, Vegetarian"
"753",81016,"King's Noodle Restaurant","Toronto","ON","M5T 2E7",43.6531048,-79.3985413,"1","Chinese, Restaurants, Noodles, Food, Barbeque, Imported Food, Specialty Food, Ethnic Food"
"754",143079,"Taqueria Don Beto","Phoenix","AZ","85008",33.4659719749,-112.0236537606,"1","Ethnic Food, Specialty Food, Food, Mexican, Food Stands, Sandwiches, Restaurants"
"755",133424,"Conflict Kitchen","Pittsburgh","PA","15213",40.44258082,-79.9527347618,"0","Imported Food, Food, Specialty Food, Ethnic Food, Restaurants"
"756",44061,"Korean Cowboy","Toronto","ON","M4P 2E6",43.7087376403,-79.3990049544,"0","Korean, Bars, Pubs, Food, Specialty Food, Ethnic Food, Restaurants, Nightlife"
"757",26656,"Chocolada","Thornhill","ON","L4J 2L1",43.7975158,-79.4268149,"1","Ethnic Food, Specialty Food, Food, Bakeries, Desserts, Imported Food"
"758",158997,"Perspolis Hookah Lounge","Pittsburgh","PA","15213",40.452254,-79.952033,"0","Ethnic Food, Specialty Food, Restaurants, Cafes, Nightlife, Food, Bars, Hookah Bars, Lounges"
"759",60088,"Touch Down Foods","Toronto","ON","M1B 2G1",43.8075868,-79.2345232,"1","Grocery, Imported Food, Food, Sri Lankan, Specialty Food, Ethnic Food, Desserts, Restaurants"
"760",30271,"Mariana's Supermarket","Las Vegas","NV","89102",36.1434007,-115.1897497,"1","Specialty Food, Imported Food, Ethnic Food, Food, Grocery"
"761",109840,"Chow's Restaurant Chinese Food","Dorval","QC","H9S 3H6",45.4446574,-73.7408931,"1","Shopping, Specialty Food, Home & Garden, Food, Ethnic Food, Kitchen & Bath, Imported Food, Restaurants, Chinese"
"762",116306,"Don Pedro Mexican Restaurant","Charlotte","NC","28213",35.2944056,-80.7425316,"1","Food, Mexican, Ethnic Food, Restaurants, Specialty Food, Latin American"
"763",163287,"La Jawab","Calgary","AB","T3J 3J8",51.0977305037,-113.9621605429,"1","Restaurants, Food, Indian, Ethnic Food, Imported Food, Specialty Food"
"764",45598,"Nuno's Churrasqueira","Toronto","ON","M6K 1T5",43.6497889,-79.4339281,"1","Specialty Food, Imported Food, Ethnic Food, Food"
"765",148774,"West Side Market","Cleveland","OH","44113",41.484647,-81.702746,"1","Farmers Market, Specialty Food, Fruits & Veggies, Seafood Markets, Public Markets, Meat Shops, Shopping, Ethnic Food, Food, Market Stalls"
"766",137138,"The Tamale Store","Phoenix","AZ","85032",33.6308566,-112.0313822,"1","Mexican, Sandwiches, Restaurants, Food, Specialty Food, Ethnic Food, Salad"
"767",89862,"Ruby Chinese Restaurant Ltd","Scarborough","ON","M1V 1V2",43.810872,-79.270895,"0","Ethnic Food, Restaurants, Specialty Food, Food, Chinese"
"768",815,"Peking Garden","Montréal","QC","H3W 1Y3",45.4842655,-73.6289592,"1","Imported Food, Chinese, Restaurants, Home & Garden, Ethnic Food, Kitchen & Bath, Shopping, Specialty Food, Food"
"769",116116,"Mandarin Restaurant - Markham","Markham","ON","L3R 2N2",43.83017,-79.353634,"1","Specialty Food, Restaurants, Chinese, Food, Ethnic Food, Buffets"
"770",140908,"Hong Kong Gardens Tavern and Restaurant","Etobicoke","ON","M8X 1C1",43.6475472,-79.5098814,"1","Nightlife, Chinese, Specialty Food, Restaurants, Food, Ethnic Food"
"771",91055,"dabu","Lorain","OH","44052",41.462836,-82.172165,"0","Cocktail Bars, Specialty Food, Asian Fusion, Bars, Food, Restaurants, Ethnic Food, Nightlife"
"772",186448,"Chalo Fresh","Brampton","ON","L6R 3P4",43.7572473,-79.7615522,"1","Ethnic Food, Specialty Food, Food, Imported Food, Grocery"
"773",84494,"The Empanada Company","Etobicoke","ON","M8W 3N3",43.5922016,-79.5417608,"1","Mexican, Fast Food, Food, Latin American, Restaurants, Ethnic Food, Specialty Food"
"774",112211,"The Fresh Market","Charlotte","NC","28211",35.156818,-80.7968669,"1","Grocery, Ethnic Food, Specialty Food, Fruits & Veggies, Cheese Shops, Food, Farmers Market, Beer, Wine & Spirits, Bakeries, Health Markets, Coffee & Tea"
"775",36947,"Danforth Dragon","Toronto","ON","M4J 1L8",43.6797052,-79.3397512,"1","Indian, Chinese, Food, Specialty Food, Restaurants, Ethnic Food"
"776",32486,"Ali Baba's Middle Eastern Cuisine","Toronto","ON","M5G 1C8",43.654845,-79.387243,"1","Specialty Food, Ethnic Food, Food, Restaurants, Middle Eastern"
"777",10361,"Myungdong Kalguksu","Markham","ON","L3T 2S2",43.83148,-79.40545,"1","Imported Food, Food, Restaurants, Specialty Food, Korean, Asian Fusion, Ethnic Food"
"778",42225,"Perla Homemade Delights","Cleveland","OH","44134",41.414619,-81.710837,"1","Food, Specialty Food, Ethnic Food, Desserts, Bakeries"
"779",170558,"Amaya","Toronto","ON","M5X 2A2",43.6486231154,-79.3816485246,"1","Indian, Restaurants, Specialty Food, Imported Food, Ethnic Food, Food"
"780",99748,"Crispy Meat & Catering","Toronto","ON","M9V 1C3",43.7425775,-79.6042686,"1","Specialty Food, Butcher, Food, Meat Shops, Ethnic Food, Imported Food"
"781",179974,"Pasta & Provisions","Charlotte","NC","28207",35.1864682,-80.8220131,"1","Caterers, Ethnic Food, Food, Grocery, Appliances, Home & Garden, Restaurants, Beer, Wine & Spirits, Event Planning & Services, Soup, Delis, Shopping, Specialty Food, Pasta Shops"
"782",89299,"Edelweiss Village","Calgary","AB","T2M 1H6",51.070313,-114.1053935,"1","Ethnic Food, Sandwiches, Food, Flowers & Gifts, Shopping, Restaurants, Specialty Food, Gift Shops, Delis"
"783",156512,"Biên Hòa","Las Vegas","NV","89146",36.1262521188,-115.2177886609,"1","Food, Specialty Food, Vietnamese, Restaurants, Imported Food, Sandwiches, Ethnic Food, Desserts"
"784",150688,"Johny Banana","Toronto","ON","M5T 2R7",43.6475463,-79.4040008,"0","Ethnic Food, Restaurants, Fast Food, Food, Mexican, Specialty Food"
"785",167701,"Quiapo! Quiapo!","Mississauga","ON","L5C",43.5689036373,-79.6669399738,"0","Specialty Food, Filipino, Ethnic Food, Food, Restaurants"
"786",83091,"Cemitas Poblanas  Mi Chula Puebla","Las Vegas","NV","89101",36.1651262127,-115.1163050487,"0","Mexican, Ethnic Food, Specialty Food, Street Vendors, Food, Restaurants"
"787",2403,"Puff Samosa","Toronto","ON","M1L 2P5",43.7342252,-79.2852982,"1","Specialty Food, Bakeries, Russian, Halal, Restaurants, Ethnic Food, Food"
"788",161272,"Fat Bastard Burrito","Toronto","ON","M8Z 1R5",43.622319,-79.521924,"1","Mexican, Ethnic Food, Specialty Food, Tex-Mex, Food, Restaurants"
"789",165816,"New Oriental Recipes","Markham","ON","L3R 3P9",43.84985,-79.3476695,"1","Food, Restaurants, Ethnic Food, Singaporean, Specialty Food"
"790",68202,"Soul Food Cafe Express","Las Vegas","NV","89120",36.0833352,-115.0999753,"1","Specialty Food, Soul Food, Food Trucks, Ethnic Food, Restaurants, Food"
"791",146858,"Khublai Mongolian Szechuan Cuisine","Calgary","AB","T2R 0A5",51.0434471,-114.070839,"1","Chinese, Imported Food, Food, Ethnic Food, Specialty Food, Restaurants, Mongolian"
"792",26197,"Babushka's Kitchen","Northfield Center","OH","44067",41.3109204,-81.5360925,"0","Polish, Food, Ethnic Food, Specialty Food, Restaurants"
"793",173555,"Renaissance Catering","Las Vegas","NV","89103",36.1182214,-115.20948,"1","Beer, Wine & Spirits, Event Planning & Services, Specialty Food, Party & Event Planning, Food, Caterers, Wedding Planning, Ethnic Food"
"794",139126,"China Gourmet Takeout","North York","ON","M3B 1Y5",43.755056,-79.348422,"1","Restaurants, Specialty Food, Chinese, Ethnic Food, Food"
"795",83417,"Fruiticana","Calgary","AB","T3J 3K9",51.097389,-113.9613353,"1","Fruits & Veggies, Food, Grocery, Imported Food, Ethnic Food, Specialty Food"
"796",123304,"Bharat Bazaar","Tempe","AZ","85281",33.4213508,-111.9247139,"1","Ethnic Food, Imported Food, Food, Specialty Food, Grocery"
"797",49210,"Ora Mangiamo","Pickering","ON","L1V 0C5",43.8216947,-79.1117538,"0","Specialty Food, Bakeries, Coffee & Tea, Ethnic Food, Italian, Food, Restaurants"
"798",163991,"iPho","Calgary","AB","T2P 0W4",51.0474586487,-114.0762634277,"0","Food, Ethnic Food, Specialty Food"
"799",82779,"Shawarma's King","Toronto","ON","M5C",43.6533382,-79.375638,"1","Imported Food, Specialty Food, Food, Restaurants, Middle Eastern, Ethnic Food"
"800",91706,"Red Dragon","Brampton","ON","L7A 2X6",43.6962629,-79.8004133,"0","Food, Ethnic Food, Specialty Food, Imported Food"
"801",130418,"The Munchies Cafe","Tempe","AZ","85281",33.424165115,-111.9394583892,"1","Specialty Food, Ethnic Food, Restaurants, Food, Mediterranean, Greek"
"802",94800,"Adonis","Anjou","QC","H1M 2T5",45.5999885,-73.5596529,"1","Caterers, Farmers Market, Ethnic Food, Grocery, Meat Shops, Ethical Grocery, Imported Food, Event Planning & Services, Bakeries, Specialty Food, Fruits & Veggies, Food"
"803",110999,"Hot Spicy Spicy","North York","ON","M2H 1T1",43.7912512099,-79.3673529192,"1","Food, Restaurants, Szechuan, Chinese, Ethnic Food, Specialty Food, Hot Pot"
"804",83183,"Las 15 Salsas","Phoenix","AZ","85021",33.5716991,-112.0835696,"1","Restaurants, Imported Food, Food, Mexican, Breakfast & Brunch, Ethnic Food, Specialty Food"
"805",187983,"Tequileria Grille","Las Vegas","NV","89119",36.080609,-115.146624,"1","Tex-Mex, Ethnic Food, Restaurants, Imported Food, Food, Specialty Food"
"806",73500,"Aldi","Brooklyn","OH","44144",41.4191771102,-81.7581218854,"1","Ethnic Food, Food, Beer, Wine & Spirits, Imported Food, Grocery, Specialty Food"
"807",24153,"The Dumpling Lady","Charlotte","NC","28205",35.2263714,-80.7990185,"1","Food Trucks, Chinese, Noodles, Specialty Food, Food Delivery Services, Ethnic Food, Event Planning & Services, Restaurants, Caterers, Szechuan, Food"
"808",19886,"Tree Country Bistro","Cleveland Heights","OH","44118",41.5105244,-81.5797661,"1","Thai, Specialty Food, Food, Korean, Asian Fusion, Ethnic Food, Restaurants, Sushi Bars"
"809",28796,"Qdoba Mexican Grill","Mesa","AZ","85210",33.3809648,-111.8402013,"0","Food, Specialty Food, Mexican, Ethnic Food, Restaurants"
"810",138240,"Shun Lee alimentation & thé","Montréal","QC","H2Z 1J5",45.5085155,-73.561195,"1","Ethnic Food, Specialty Food, Chinese, Imported Food, Restaurants, Food"
"811",70087,"Four Seasons Chinese Food Takeout Aurora","Aurora","ON","L4G 1P3",44.0067614,-79.4687848,"0","Ethnic Food, Food, Imported Food, Specialty Food"
"812",2283,"Golden House Chinese Restaurant","Scarborough","ON","M1R 4E4",43.760434,-79.3018685,"1","Food, Specialty Food, Ethnic Food, Imported Food"
"813",99108,"Wei of Chocolate","Phoenix","AZ","85007",33.448263,-112.073821,"1","Specialty Food, Desserts, Chocolatiers & Shops, Local Flavor, Ethnic Food, Food, Farmers Market, Candy Stores"
"814",14960,"Moo Frites","Toronto","ON","M5T 1L8",43.6548210057,-79.4007505178,"1","Belgian, Restaurants, Food, Specialty Food, Fast Food, Ethnic Food"
"815",69962,"Kobe","Mississauga","ON","L4T 1A6",43.7031486,-79.6432167,"0","Chinese, Food, Ethnic Food, Restaurants, Japanese, Specialty Food"
"816",107591,"Groceria Merante","Pittsburgh","PA","15213",40.4365708987,-79.9553876064,"1","Grocery, Food, Restaurants, Sandwiches, Imported Food, Ethnic Food, Specialty Food"
"817",64468,"Seasons Foodmart","Thornhill","ON","L3T 0C7",43.803404,-79.419898,"1","Ethnic Food, Grocery, Food, Imported Food, Specialty Food"
"818",96599,"The Fresh Market","Charlotte","NC","28226",35.086472,-80.84855,"1","Health Markets, Coffee & Tea, Bakeries, Fruits & Veggies, Cheese Shops, Ethnic Food, Farmers Market, Imported Food, Beer, Wine & Spirits, Food, Specialty Food, Grocery"
"819",99851,"Burrito Shop","Montréal","QC","H2X 2V4",45.51446,-73.574119,"0","Specialty Food, Mexican, Food, Restaurants, Ethnic Food, Grocery"
"820",19108,"China Gourmet King","Scarborough","ON","M1E 2M8",43.7633131,-79.194133,"1","Restaurants, Chinese, Food, Ethnic Food, Specialty Food"
"821",167881,"Nacho Mamas","Tempe","AZ","85283",33.3769983,-111.9453968,"0","Restaurants, Food, Karaoke, Ethnic Food, Bars, Beer, Wine & Spirits, Sports Bars, Mexican, Nightlife, Specialty Food"
"822",15884,"Mövenpick Marché","North York","ON","M2L 1L3",43.7471377903,-79.3850769159,"0","Modern European, Ethnic Food, Delicatessen, Specialty Food, Food, Restaurants"
"823",161146,"Papa J's","Carnegie","PA","15106",40.4082006,-80.0851994,"1","Italian, Specialty Food, Ethnic Food, Restaurants, Food"
"824",151797,"Tortilleria Maya","Montréal","QC","H2S 3A2",45.5347553457,-73.6150647472,"1","Grocery, Food, Imported Food, Specialty Food, Ethnic Food, Restaurants, Delicatessen, Farmers Market, Mexican"
"825",121910,"Hong Kong Kitchen Chinese Food","Newmarket","ON","L3X 1X2",44.0386973,-79.4521494,"1","Imported Food, Food, Ethnic Food, Specialty Food"
"826",136681,"Empanada Queen","Calgary","AB","T2G 4B7",51.0139539,-114.0529222,"1","Latin American, Ethnic Food, Fast Food, Specialty Food, Restaurants, Food"
"827",120574,"Gracias Corazon","Montréal","QC","H2T 2K9",45.5249956,-73.5999018,"0","Specialty Food, Colombian, Restaurants, Vegetarian, Ethnic Food, Spanish, Latin American, Gluten-Free, Italian, Cafes, Southern, Food"
"828",144952,"Thai On Yonge","Toronto","ON","M5B 1S5",43.65855,-79.382072,"1","Food, Specialty Food, Ethnic Food, Restaurants, Food Delivery Services, Vegetarian, Thai"
"829",93000,"Goldenview Chinese Restaurant","Mississauga","ON","L5N 0C3",43.6060451848,-79.7285520389,"1","Imported Food, Specialty Food, Chinese, Food, Seafood, Restaurants, Soup, Ethnic Food"
"830",130615,"Chatime","Thornhill","ON","L3T 7W6",43.8426522,-79.3868698,"1","Coffee & Tea, Specialty Food, Food, Tea Rooms, Ethnic Food, Desserts"
"831",178924,"Alaturka","Cleveland","OH","44113",41.485338,-81.70379,"0","Specialty Food, Nightlife, Food, Restaurants, Ethnic Food, Turkish"
"832",124315,"Chinese Food Gallery","Toronto","ON","M5N 1B5",43.7031772,-79.4145907,"1","Ethnic Food, Food, Specialty Food, Imported Food"
"833",133390,"New Tokyo Food Market","Phoenix","AZ","85051",33.5527619,-112.1332876,"1","International Grocery, Food, Specialty Food, Japanese, Ethnic Food, Restaurants"
"834",142705,"Taigu","Middleton","WI","53562",43.096083,-89.51364,"1","Ethnic Food, Seafood, Noodles, Chinese, Restaurants, Specialty Food, Soup, Food"
"835",134310,"Sandown Market West","Etobicoke","ON","M8W 3W2",43.609555,-79.5487159,"1","Imported Food, Seafood Markets, Japanese, Food, Restaurants, Specialty Food, Grocery, Ethnic Food"
"836",4574,"Pho Thanh Vietnamese Noodle House & Restaurant","Calgary","AB","T2K 6H1",51.1115404,-114.0558958,"1","Imported Food, Noodles, Chinese, Vietnamese, Specialty Food, Food, Ethnic Food, Restaurants"
"837",61040,"99 Ranch Market","Las Vegas","NV","89119",36.1207396639,-115.1357796416,"1","Ethnic Food, Seafood Markets, Grocery, Specialty Food, Food"
"838",94263,"China Garden","Bradford","ON","L3Z 1J3",44.1107532,-79.5785614,"1","Imported Food, Food, Restaurants, Chinese, Ethnic Food, Specialty Food"
"839",142475,"China Buffet King","Richmond Hill","ON","L4C 8S7",43.8654706,-79.4349919,"0","Ethnic Food, Chinese, Restaurants, Buffets, Food, Specialty Food"
"840",84832,"Wei's Taiwanese Food","Scarborough","ON","M1T 2M5",43.789870549,-79.3026316166,"1","Imported Food, Food, Ethnic Food, Specialty Food, Taiwanese, Restaurants, Chinese"
"841",15226,"Most Wanted Taco Shop","Phoenix","AZ","85020",33.5759159193,-112.0660554663,"0","American (New), Food Trucks, Ethnic Food, Mexican, Specialty Food, Food, Herbs & Spices, Restaurants"
"842",23952,"Saigon Flower Restaurant","Toronto","ON","M6J 1J3",43.6432219,-79.4242064,"1","Food, Ethnic Food, Specialty Food, Restaurants, Vietnamese, Imported Food, Chinese"
"843",170631,"Flower Drum Restaurant","Etobicoke","ON","M8V 1C4",43.6145069,-79.4893928,"1","Imported Food, Chinese, Specialty Food, Restaurants, Food, Ethnic Food"
"844",86116,"Dalbrent Spice Rack","Calgary","AB","T2L 1V9",51.1017374,-114.1390655,"1","Food, Grocery, Imported Food, Ethnic Food, Specialty Food"
"845",34851,"The Samosa Factory","Calgary","AB","T3J 5H2",51.107055606,-113.9694111511,"1","Specialty Food, Restaurants, Indian, Food, American (New), Ethnic Food"
"846",162003,"Filiberto's Mexican Food","Phoenix","AZ","85041",33.392438,-112.13576,"1","Imported Food, Restaurants, Specialty Food, Breakfast & Brunch, Ethnic Food, Food, Mexican"
"847",28446,"The Empanadas House","Champaign","IL","61820",40.1104457,-88.2330726,"1","Imported Food, Ethnic Food, Restaurants, Empanadas, Food, Food Trucks, Specialty Food, Argentine"
"848",75325,"Fujiya Market","Tempe","AZ","85281",33.4212545,-111.9603096,"1","Imported Food, Ethnic Food, Specialty Food, Restaurants, Food, Japanese, Grocery"
"849",4675,"Chinese Express Takeout","Mississauga","ON","L5H 1G6",43.5447464,-79.5936744,"1","Restaurants, Imported Food, Chinese, Specialty Food, Food, Ethnic Food"
"850",114277,"La Saigonaise","Montréal","QC","H3S 1Y7",45.4990743,-73.6277977,"0","Imported Food, Food, Thai, Ethnic Food, Specialty Food, Restaurants, Vietnamese"
"851",165034,"Lucy's Bake & Deli","Stallings","NC","28104",35.0841220633,-80.6968826411,"1","Ethnic Food, Food, Latin American, Bakeries, Restaurants, Sandwiches, Venezuelan, Specialty Food, Colombian"
"852",86232,"Blue Sky Supermarket","Toronto","ON","M3I 1A5",43.727864,-79.511789,"1","Ethnic Food, Grocery, Imported Food, Specialty Food, Food"
"853",176032,"Harry's Hofbrau","Mentor","OH","44060",41.6789768,-81.3360137,"0","Food, Comfort Food, Beer Gardens, Ethnic Food, Hungarian, Nightlife, Desserts, Specialty Food, Beer Bar, Restaurants, Bars, German"
"854",1962,"Almellass Cafe","Lakewood","OH","44107",41.483315,-81.770577,"0","Food, Specialty Food, Restaurants, Egyptian, Arabian, Lebanese, Ethnic Food, Middle Eastern, Greek"
"855",77900,"Grande Cheese","North York","ON","M6A 1L6",43.72037,-79.457942,"1","Cheese Shops, Food, Imported Food, Specialty Food, Ethnic Food"
"856",160132,"Kool Jerk","Phoenix","AZ","85017",33.5195347,-112.1173867,"0","Restaurants, Food, Caribbean, Bars, Nightlife, Specialty Food, Caterers, Event Planning & Services, Chicken Shop, Ethnic Food, Chicken Wings"
"857",6831,"Jimmy's Louisiana Market Deli","Las Vegas","NV","89106",36.1589533,-115.1609259,"0","Specialty Food, Restaurants, Delis, Ethnic Food, Food"
"858",43778,"Shish Poulet","Lasalle","QC","H8N 1Y1",45.433924,-73.6287235,"1","Imported Food, Restaurants, Lebanese, Food, Middle Eastern, Specialty Food, Ethnic Food"
"859",81375,"Molly's Tamales","Glendale","AZ","85302",33.564907,-112.152437,"1","Food, Restaurants, Ethnic Food, Imported Food, Specialty Food, Mexican"
"860",50600,"Yume Sushi Grill","Scottsdale","AZ","85254",33.63632827,-111.9229530119,"1","Food, Restaurants, Sushi Bars, Korean, Ethnic Food, Specialty Food, Japanese"
"861",11501,"Golden Gate Restaurant","Calgary","AB","T2J 0B2",50.9698338,-114.0479422,"1","Imported Food, Event Planning & Services, Chinese, Ethnic Food, Specialty Food, Caterers, Restaurants, Food"
"862",22230,"Ziz Greek Kitchen","Markham","ON","L3R 2N7",43.832866707,-79.3543177843,"1","Greek, Restaurants, Ethnic Food, Food, Specialty Food"
"863",141723,"Empire Shisha Bar","Calgary","AB","T2G 2J8",51.0368071,-114.0614354,"0","Middle Eastern, Specialty Food, Lounges, Arts & Entertainment, Desserts, Bars, Persian/Iranian, Music Venues, Food, Restaurants, Nightlife, Hookah Bars, Ethnic Food, Dance Clubs"
"864",178106,"Westwood Grill","Toronto","ON","M6P 1S1",43.6599304,-79.4796397,"1","Dim Sum, Food, Asian Fusion, Specialty Food, Chinese, Restaurants, Thai, Ethnic Food"
"865",15414,"Kung Fu Duck","Markham","ON","L3R 5Y3",43.8202068,-79.3253433,"1","Food, Specialty Food, Imported Food, Ethnic Food"
"866",111523,"Momoyama Sushi","Las Vegas","NV","89117",36.1433538,-115.2512854,"0","Japanese, Sushi Bars, Food, Restaurants, Ethnic Food, Specialty Food"
"867",185708,"Treasures of China","Calgary","AB","T2J 0P9",50.969647,-114.06914,"0","Imported Food, Food, Restaurants, Ethnic Food, Chinese, Specialty Food"
"868",121886,"Danny's Pub Scarborough","Toronto","ON","M1E 2L3",43.7623053,-79.1837659,"1","Food, Restaurants, Pubs, Specialty Food, Nightlife, Ethnic Food, Imported Food, Bars"
"869",147858,"Yafa Market and Cafe","Charlotte","NC","28210",35.0905079,-80.868095,"1","Food, Specialty Food, Imported Food, Grocery, Butcher, Ethnic Food"
"870",4829,"In-N-Out Burger","Peoria","AZ","85382",33.6377567,-112.2329925,"1","Food, Restaurants, Ethnic Food, Fast Food, Specialty Food, Burgers"
"871",179361,"Island Malaysian Cuisine 2","Las Vegas","NV","89102",36.125908,-115.197904,"0","Food, Specialty Food, Malaysian, Thai, Chinese, Soup, Restaurants, Ethnic Food"
"872",26842,"The Cherry Inn","Calgary","AB","T2K 6G9",51.1122654,-114.0562046,"1","Restaurants, Noodles, Specialty Food, Food, Soup, Seafood, Ethnic Food, Chinese"
"873",30667,"My Big Fat Greek Gyro","McMurray","PA","15317",40.2778478,-80.0839431,"0","Greek, Food, Specialty Food, Restaurants, Ethnic Food"
"874",130363,"BG Bistro","Las Vegas","NV","89103",36.1011439,-115.2274256,"1","Specialty Food, Food, Mediterranean, Ethnic Food, American (Traditional), Modern European, Restaurants"
"875",51644,"Red Mansion","Las Vegas","NV","89101",36.171496,-115.141486,"0","Food, Ethnic Food, Chinese, Specialty Food, Restaurants"
"876",55070,"Pho Dau Bo","Brampton","ON","L6X 5A5",43.7026299,-79.7856743,"1","Restaurants, Specialty Food, Ethnic Food, Food, Vietnamese"
"877",176776,"Westown Chinese Food","Toronto","ON","M6P 1Y2",43.6650312,-79.4595114,"1","Restaurants, Chinese, Specialty Food, Food, Ethnic Food"
"878",101935,"Mekong Plaza","Mesa","AZ","85209",33.4130573,-111.8759922,"1","Ethnic Food, Shopping Centers, Specialty Food, Grocery, Restaurants, Food, Chinese, Imported Food, Shopping, Dim Sum, Vietnamese"
"879",55074,"Japan Creek Market","Las Vegas","NV","89123",36.0191006,-115.1169315,"1","Imported Food, Ethnic Food, Specialty Food, Food, Grocery"
"880",29552,"Calypso Gardens","Brampton","ON","L6W 3P3",43.6884192,-79.7407323,"1","Ethnic Food, Restaurants, Chinese, Food, Specialty Food, Caribbean"
"881",107843,"The King's Kitchen","Markham","ON","L6E 1A2",43.893994,-79.263055,"1","Imported Food, Chinese, Food, Seafood, Specialty Food, Thai, Ethnic Food, Restaurants"
"882",43651,"Mercator Euro Mini Mart","Scarborough","ON","M1R 5B3",43.79066,-79.25401,"1","Specialty Food, International Grocery, Ethnic Food, Food, Grocery"
